[
    {
        "Name": "GLEN FERGUS",
        "State": "NSW",
        "Postcode": "2630"
    },
    {
        "Name": "BRAYTON",
        "State": "NSW",
        "Postcode": "2579"
    },
    {
        "Name": "BIRGANBIGIL",
        "State": "NSW",
        "Postcode": "2710"
    },
    {
        "Name": "SUTHERLANDS",
        "State": "SA",
        "Postcode": "5374"
    },
    {
        "Name": "SECOND VALLEY",
        "State": "SA",
        "Postcode": "5204"
    },
    {
        "Name": "URUNGA",
        "State": "NSW",
        "Postcode": "2455"
    },
    {
        "Name": "WEBB BEACH",
        "State": "SA",
        "Postcode": "5501"
    },
    {
        "Name": "PULGANBAR",
        "State": "NSW",
        "Postcode": "2460"
    },
    {
        "Name": "BULLA",
        "State": "NSW",
        "Postcode": "2835"
    },
    {
        "Name": "DAGUN",
        "State": "QLD",
        "Postcode": "4570"
    },
    {
        "Name": "COBAKI",
        "State": "NSW",
        "Postcode": "2486"
    },
    {
        "Name": "MODBURY HEIGHTS",
        "State": "SA",
        "Postcode": "5092"
    },
    {
        "Name": "YOUNGS SIDING",
        "State": "WA",
        "Postcode": "6330"
    },
    {
        "Name": "ROCKY CREEK",
        "State": "NSW",
        "Postcode": "2390"
    },
    {
        "Name": "STRATHFIELD",
        "State": "NSW",
        "Postcode": "2135"
    },
    {
        "Name": "EDEN PARK",
        "State": "VIC",
        "Postcode": "3757"
    },
    {
        "Name": "YALYALUP",
        "State": "WA",
        "Postcode": "6280"
    },
    {
        "Name": "URAIDLA",
        "State": "SA",
        "Postcode": "5142"
    },
    {
        "Name": "YURUGA",
        "State": "QLD",
        "Postcode": "4850"
    },
    {
        "Name": "BOGEE",
        "State": "NSW",
        "Postcode": "2849"
    },
    {
        "Name": "MANOR LAKES",
        "State": "VIC",
        "Postcode": "3024"
    },
    {
        "Name": "SHOAL BAY",
        "State": "NSW",
        "Postcode": "2315"
    },
    {
        "Name": "JURIEN BAY",
        "State": "WA",
        "Postcode": "6516"
    },
    {
        "Name": "GUM CREEK",
        "State": "SA",
        "Postcode": "5417"
    },
    {
        "Name": "MURRAH",
        "State": "NSW",
        "Postcode": "2546"
    },
    {
        "Name": "INGLEBURN",
        "State": "NSW",
        "Postcode": "2565"
    },
    {
        "Name": "PANGEE",
        "State": "NSW",
        "Postcode": "2825"
    },
    {
        "Name": "MOUNT GLASGOW",
        "State": "VIC",
        "Postcode": "3371"
    },
    {
        "Name": "ROSEBROOK",
        "State": "VIC",
        "Postcode": "3285"
    },
    {
        "Name": "BULYEROI",
        "State": "NSW",
        "Postcode": "2387"
    },
    {
        "Name": "FIELD",
        "State": "SA",
        "Postcode": "5265"
    },
    {
        "Name": "WINNAMBOOL",
        "State": "VIC",
        "Postcode": "3546"
    },
    {
        "Name": "EASTWOOD",
        "State": "SA",
        "Postcode": "5063"
    },
    {
        "Name": "ROWLAND FLAT",
        "State": "SA",
        "Postcode": "5352"
    },
    {
        "Name": "DETENTION",
        "State": "TAS",
        "Postcode": "7321"
    },
    {
        "Name": "GLENELG SOUTH",
        "State": "SA",
        "Postcode": "5045"
    },
    {
        "Name": "BIMBIMBIE",
        "State": "NSW",
        "Postcode": "2536"
    },
    {
        "Name": "KOWGURAN",
        "State": "QLD",
        "Postcode": "4415"
    },
    {
        "Name": "MOUNT WHITESTONE",
        "State": "QLD",
        "Postcode": "4347"
    },
    {
        "Name": "NORTH LAKES",
        "State": "QLD",
        "Postcode": "4509"
    },
    {
        "Name": "BIRREGURRA",
        "State": "VIC",
        "Postcode": "3242"
    },
    {
        "Name": "MELVILLE",
        "State": "NSW",
        "Postcode": "2320"
    },
    {
        "Name": "SPENCE",
        "State": "SA",
        "Postcode": "5271"
    },
    {
        "Name": "BLACKSTONE HEIGHTS",
        "State": "TAS",
        "Postcode": "7250"
    },
    {
        "Name": "METFORD",
        "State": "NSW",
        "Postcode": "2323"
    },
    {
        "Name": "DEERAL",
        "State": "QLD",
        "Postcode": "4871"
    },
    {
        "Name": "QUANDARY",
        "State": "NSW",
        "Postcode": "2665"
    },
    {
        "Name": "MOUNT TORRENS",
        "State": "SA",
        "Postcode": "5244"
    },
    {
        "Name": "GIFFARD WEST",
        "State": "VIC",
        "Postcode": "3851"
    },
    {
        "Name": "CREMORNE",
        "State": "VIC",
        "Postcode": "3121"
    },
    {
        "Name": "WALLANBAH",
        "State": "NSW",
        "Postcode": "2422"
    },
    {
        "Name": "HOPEFIELD",
        "State": "NSW",
        "Postcode": "2646"
    },
    {
        "Name": "STONEVILLE",
        "State": "WA",
        "Postcode": "6081"
    },
    {
        "Name": "MELTON",
        "State": "VIC",
        "Postcode": "3337"
    },
    {
        "Name": "BUNBURY",
        "State": "SA",
        "Postcode": "5266"
    },
    {
        "Name": "NEDLANDS",
        "State": "WA",
        "Postcode": "6009"
    },
    {
        "Name": "KOKATHA",
        "State": "SA",
        "Postcode": "5717"
    },
    {
        "Name": "THE COVE",
        "State": "VIC",
        "Postcode": "3268"
    },
    {
        "Name": "ANANGU PITJANTJATJARA YANKUNYTJATJARA",
        "State": "SA",
        "Postcode": "5724"
    },
    {
        "Name": "CAMDEN PARK",
        "State": "NSW",
        "Postcode": "2570"
    },
    {
        "Name": "HAT HEAD",
        "State": "NSW",
        "Postcode": "2440"
    },
    {
        "Name": "COOCHIN CREEK",
        "State": "QLD",
        "Postcode": "4519"
    },
    {
        "Name": "SWAN BAY",
        "State": "VIC",
        "Postcode": "3225"
    },
    {
        "Name": "DOYLES CREEK",
        "State": "NSW",
        "Postcode": "2330"
    },
    {
        "Name": "BOIGBEAT",
        "State": "VIC",
        "Postcode": "3531"
    },
    {
        "Name": "WANDSWORTH",
        "State": "NSW",
        "Postcode": "2365"
    },
    {
        "Name": "YORNANING",
        "State": "WA",
        "Postcode": "6311"
    },
    {
        "Name": "MURRA WARRA",
        "State": "VIC",
        "Postcode": "3401"
    },
    {
        "Name": "LOWER TULLY",
        "State": "QLD",
        "Postcode": "4854"
    },
    {
        "Name": "PIGEONBAH",
        "State": "NSW",
        "Postcode": "2824"
    },
    {
        "Name": "KATAMATITE",
        "State": "VIC",
        "Postcode": "3649"
    },
    {
        "Name": "MEREWETHER",
        "State": "NSW",
        "Postcode": "2291"
    },
    {
        "Name": "NERIMBERA",
        "State": "QLD",
        "Postcode": "4701"
    },
    {
        "Name": "MITCHELL PARK",
        "State": "SA",
        "Postcode": "5043"
    },
    {
        "Name": "RED HILL",
        "State": "VIC",
        "Postcode": "3937"
    },
    {
        "Name": "TARGINNIE",
        "State": "QLD",
        "Postcode": "4694"
    },
    {
        "Name": "KAGARU",
        "State": "QLD",
        "Postcode": "4285"
    },
    {
        "Name": "CATALINA",
        "State": "NSW",
        "Postcode": "2536"
    },
    {
        "Name": "BLYTH",
        "State": "SA",
        "Postcode": "5462"
    },
    {
        "Name": "AJANA",
        "State": "WA",
        "Postcode": "6532"
    },
    {
        "Name": "NABAWA",
        "State": "WA",
        "Postcode": "6532"
    },
    {
        "Name": "LINCOLN NATIONAL PARK",
        "State": "SA",
        "Postcode": "5607"
    },
    {
        "Name": "GEROGERY",
        "State": "NSW",
        "Postcode": "2642"
    },
    {
        "Name": "WULGURU",
        "State": "QLD",
        "Postcode": "4811"
    },
    {
        "Name": "POMONAL",
        "State": "VIC",
        "Postcode": "3381"
    },
    {
        "Name": "GREEN VALLEY",
        "State": "WA",
        "Postcode": "6330"
    },
    {
        "Name": "BLAIR ATHOL",
        "State": "NSW",
        "Postcode": "2560"
    },
    {
        "Name": "WEST END",
        "State": "QLD",
        "Postcode": "4810"
    },
    {
        "Name": "BONNET HILL",
        "State": "TAS",
        "Postcode": "7053"
    },
    {
        "Name": "ST MARYS",
        "State": "TAS",
        "Postcode": "7215"
    },
    {
        "Name": "RICHMOND",
        "State": "SA",
        "Postcode": "5033"
    },
    {
        "Name": "BRITTONS SWAMP",
        "State": "TAS",
        "Postcode": "7330"
    },
    {
        "Name": "YOUNGHUSBAND HOLDINGS",
        "State": "SA",
        "Postcode": "5238"
    },
    {
        "Name": "KINGSHOLME",
        "State": "QLD",
        "Postcode": "4208"
    },
    {
        "Name": "TEDDYWADDY",
        "State": "VIC",
        "Postcode": "3527"
    },
    {
        "Name": "GWINDINUP",
        "State": "WA",
        "Postcode": "6237"
    },
    {
        "Name": "TONGARRA",
        "State": "NSW",
        "Postcode": "2527"
    },
    {
        "Name": "GUNDIAH",
        "State": "QLD",
        "Postcode": "4650"
    },
    {
        "Name": "UMUWA",
        "State": "SA",
        "Postcode": "0872"
    },
    {
        "Name": "SAWTELL",
        "State": "NSW",
        "Postcode": "2452"
    },
    {
        "Name": "WANNAMAL",
        "State": "WA",
        "Postcode": "6505"
    },
    {
        "Name": "TAYLORS HILL",
        "State": "VIC",
        "Postcode": "3037"
    },
    {
        "Name": "HOLMES",
        "State": "NT",
        "Postcode": "0812"
    },
    {
        "Name": "BINDEBANGO",
        "State": "QLD",
        "Postcode": "4488"
    },
    {
        "Name": "KALKADOON",
        "State": "QLD",
        "Postcode": "4825"
    },
    {
        "Name": "COLLINGWOOD PARK",
        "State": "QLD",
        "Postcode": "4301"
    },
    {
        "Name": "SPRING GULLY",
        "State": "SA",
        "Postcode": "5453"
    },
    {
        "Name": "DALWALLINU",
        "State": "WA",
        "Postcode": "6609"
    },
    {
        "Name": "MOUNT DANDENONG",
        "State": "VIC",
        "Postcode": "3767"
    },
    {
        "Name": "UPPER KEDRON",
        "State": "QLD",
        "Postcode": "4055"
    },
    {
        "Name": "MICHELAGO",
        "State": "NSW",
        "Postcode": "2620"
    },
    {
        "Name": "NUGADONG",
        "State": "WA",
        "Postcode": "6609"
    },
    {
        "Name": "VENTNOR",
        "State": "VIC",
        "Postcode": "3922"
    },
    {
        "Name": "EXFORD",
        "State": "VIC",
        "Postcode": "3338"
    },
    {
        "Name": "LIMMEN",
        "State": "NT",
        "Postcode": "0852"
    },
    {
        "Name": "DALIAK",
        "State": "WA",
        "Postcode": "6302"
    },
    {
        "Name": "BOGAN GATE",
        "State": "NSW",
        "Postcode": "2876"
    },
    {
        "Name": "PIALLAMORE",
        "State": "NSW",
        "Postcode": "2340"
    },
    {
        "Name": "WARRENUP",
        "State": "WA",
        "Postcode": "6330"
    },
    {
        "Name": "LLANARTH",
        "State": "QLD",
        "Postcode": "4820"
    },
    {
        "Name": "DANDARAGAN",
        "State": "WA",
        "Postcode": "6507"
    },
    {
        "Name": "EDILLILIE",
        "State": "SA",
        "Postcode": "5630"
    },
    {
        "Name": "MULGOA",
        "State": "NSW",
        "Postcode": "2745"
    },
    {
        "Name": "MANGROVE CREEK",
        "State": "NSW",
        "Postcode": "2250"
    },
    {
        "Name": "DULACCA",
        "State": "QLD",
        "Postcode": "4425"
    },
    {
        "Name": "DUNN ROCK",
        "State": "WA",
        "Postcode": "6355"
    },
    {
        "Name": "NATTE YALLOCK",
        "State": "VIC",
        "Postcode": "3465"
    },
    {
        "Name": "RED CLIFFS",
        "State": "VIC",
        "Postcode": "3496"
    },
    {
        "Name": "PORT STEPHENS",
        "State": "NSW",
        "Postcode": "2317"
    },
    {
        "Name": "WERRIBEE SOUTH",
        "State": "VIC",
        "Postcode": "3030"
    },
    {
        "Name": "WARUMBUL",
        "State": "NSW",
        "Postcode": "2232"
    },
    {
        "Name": "OLDINA",
        "State": "TAS",
        "Postcode": "7325"
    },
    {
        "Name": "KAURING",
        "State": "WA",
        "Postcode": "6302"
    },
    {
        "Name": "PAULS POCKET",
        "State": "QLD",
        "Postcode": "4800"
    },
    {
        "Name": "INGOLDSBY",
        "State": "QLD",
        "Postcode": "4343"
    },
    {
        "Name": "NYAH WEST",
        "State": "VIC",
        "Postcode": "3595"
    },
    {
        "Name": "CUE",
        "State": "WA",
        "Postcode": "6640"
    },
    {
        "Name": "BRINSMEAD",
        "State": "QLD",
        "Postcode": "4870"
    },
    {
        "Name": "WICKHAM",
        "State": "WA",
        "Postcode": "6720"
    },
    {
        "Name": "WOODBURY",
        "State": "TAS",
        "Postcode": "7120"
    },
    {
        "Name": "NEW PORT",
        "State": "SA",
        "Postcode": "5015"
    },
    {
        "Name": "OGUNBIL",
        "State": "NSW",
        "Postcode": "2340"
    },
    {
        "Name": "NANGUS",
        "State": "NSW",
        "Postcode": "2722"
    },
    {
        "Name": "BEARS LAGOON",
        "State": "VIC",
        "Postcode": "3517"
    },
    {
        "Name": "ARCHDALE",
        "State": "VIC",
        "Postcode": "3475"
    },
    {
        "Name": "MCCARRS CREEK",
        "State": "NSW",
        "Postcode": "2105"
    },
    {
        "Name": "BURNSIDE",
        "State": "SA",
        "Postcode": "5066"
    },
    {
        "Name": "INKERMAN",
        "State": "QLD",
        "Postcode": "4806"
    },
    {
        "Name": "MONBULLA",
        "State": "SA",
        "Postcode": "5277"
    },
    {
        "Name": "WALYORMOURING",
        "State": "WA",
        "Postcode": "6460"
    },
    {
        "Name": "KALAPA",
        "State": "QLD",
        "Postcode": "4702"
    },
    {
        "Name": "HOLLYWELL",
        "State": "QLD",
        "Postcode": "4216"
    },
    {
        "Name": "JOEL JOEL",
        "State": "VIC",
        "Postcode": "3384"
    },
    {
        "Name": "ACTON",
        "State": "ACT",
        "Postcode": "2601"
    },
    {
        "Name": "MOCKINYA",
        "State": "VIC",
        "Postcode": "3401"
    },
    {
        "Name": "IRONPOT",
        "State": "QLD",
        "Postcode": "4610"
    },
    {
        "Name": "EAST BARRON",
        "State": "QLD",
        "Postcode": "4883"
    },
    {
        "Name": "NAUIYU",
        "State": "NT",
        "Postcode": "0822"
    },
    {
        "Name": "TINAROO",
        "State": "QLD",
        "Postcode": "4872"
    },
    {
        "Name": "LAKE ALBERT",
        "State": "NSW",
        "Postcode": "2650"
    },
    {
        "Name": "BELLBIRD",
        "State": "NSW",
        "Postcode": "2325"
    },
    {
        "Name": "NARRALOGGAN",
        "State": "WA",
        "Postcode": "6302"
    },
    {
        "Name": "BUCKRABANYULE",
        "State": "VIC",
        "Postcode": "3525"
    },
    {
        "Name": "GUILDFORD WEST",
        "State": "NSW",
        "Postcode": "2161"
    },
    {
        "Name": "NARRIDY",
        "State": "SA",
        "Postcode": "5523"
    },
    {
        "Name": "PORT ALMA",
        "State": "QLD",
        "Postcode": "4699"
    },
    {
        "Name": "SOUTH JOHNSTONE",
        "State": "QLD",
        "Postcode": "4859"
    },
    {
        "Name": "MOUNTAIN CREEK",
        "State": "NSW",
        "Postcode": "2644"
    },
    {
        "Name": "BROKEN CREEK",
        "State": "VIC",
        "Postcode": "3673"
    },
    {
        "Name": "NARRANGULLEN",
        "State": "NSW",
        "Postcode": "2582"
    },
    {
        "Name": "ARAPILES",
        "State": "VIC",
        "Postcode": "3409"
    },
    {
        "Name": "RED HILL",
        "State": "QLD",
        "Postcode": "4413"
    },
    {
        "Name": "WINGFIELD",
        "State": "SA",
        "Postcode": "5013"
    },
    {
        "Name": "LAURISTON",
        "State": "VIC",
        "Postcode": "3444"
    },
    {
        "Name": "BOCOBRA",
        "State": "NSW",
        "Postcode": "2865"
    },
    {
        "Name": "PINGRUP",
        "State": "WA",
        "Postcode": "6343"
    },
    {
        "Name": "KINGSGATE",
        "State": "NSW",
        "Postcode": "2370"
    },
    {
        "Name": "WAMENUSKING",
        "State": "WA",
        "Postcode": "6383"
    },
    {
        "Name": "STANWELL TOPS",
        "State": "NSW",
        "Postcode": "2508"
    },
    {
        "Name": "ELINGAMITE",
        "State": "VIC",
        "Postcode": "3266"
    },
    {
        "Name": "TUEN",
        "State": "QLD",
        "Postcode": "4490"
    },
    {
        "Name": "COONABARABRAN",
        "State": "NSW",
        "Postcode": "2357"
    },
    {
        "Name": "SAUNDERS BEACH",
        "State": "QLD",
        "Postcode": "4818"
    },
    {
        "Name": "PITNACREE",
        "State": "NSW",
        "Postcode": "2323"
    },
    {
        "Name": "CLARENZA",
        "State": "NSW",
        "Postcode": "2460"
    },
    {
        "Name": "HYDES CREEK",
        "State": "NSW",
        "Postcode": "2454"
    },
    {
        "Name": "GOONENGERRY",
        "State": "NSW",
        "Postcode": "2482"
    },
    {
        "Name": "TOOMA",
        "State": "NSW",
        "Postcode": "2642"
    },
    {
        "Name": "KOONOONA",
        "State": "SA",
        "Postcode": "5417"
    },
    {
        "Name": "SANDY POINT",
        "State": "NSW",
        "Postcode": "2172"
    },
    {
        "Name": "BRINERVILLE",
        "State": "NSW",
        "Postcode": "2454"
    },
    {
        "Name": "HILLIER",
        "State": "SA",
        "Postcode": "5116"
    },
    {
        "Name": "NAGAMBIE",
        "State": "VIC",
        "Postcode": "3608"
    },
    {
        "Name": "THUMB CREEK",
        "State": "NSW",
        "Postcode": "2447"
    },
    {
        "Name": "HERNE HILL",
        "State": "VIC",
        "Postcode": "3218"
    },
    {
        "Name": "KANGAROO VALLEY",
        "State": "NSW",
        "Postcode": "2577"
    },
    {
        "Name": "FISH CREEK",
        "State": "VIC",
        "Postcode": "3959"
    },
    {
        "Name": "GRACEMERE",
        "State": "QLD",
        "Postcode": "4702"
    },
    {
        "Name": "MOUNT LAWLESS",
        "State": "QLD",
        "Postcode": "4625"
    },
    {
        "Name": "ROSSVALE",
        "State": "QLD",
        "Postcode": "4356"
    },
    {
        "Name": "MELBOURNE",
        "State": "VIC",
        "Postcode": "3004"
    },
    {
        "Name": "HEALY",
        "State": "QLD",
        "Postcode": "4825"
    },
    {
        "Name": "WOOLMER",
        "State": "QLD",
        "Postcode": "4352"
    },
    {
        "Name": "NICHOLLS",
        "State": "ACT",
        "Postcode": "2913"
    },
    {
        "Name": "LEONGATHA SOUTH",
        "State": "VIC",
        "Postcode": "3953"
    },
    {
        "Name": "MUNGAR",
        "State": "QLD",
        "Postcode": "4650"
    },
    {
        "Name": "HEATHCOTE",
        "State": "NSW",
        "Postcode": "2233"
    },
    {
        "Name": "CRANEBROOK",
        "State": "NSW",
        "Postcode": "2749"
    },
    {
        "Name": "MITCHELL",
        "State": "SA",
        "Postcode": "5632"
    },
    {
        "Name": "WHITLANDS",
        "State": "VIC",
        "Postcode": "3678"
    },
    {
        "Name": "FOUR WAYS",
        "State": "QLD",
        "Postcode": "4824"
    },
    {
        "Name": "CROOKED RIVER",
        "State": "VIC",
        "Postcode": "3862"
    },
    {
        "Name": "COREE",
        "State": "NSW",
        "Postcode": "2710"
    },
    {
        "Name": "BURKES FLAT",
        "State": "VIC",
        "Postcode": "3475"
    },
    {
        "Name": "MARYVALE",
        "State": "SA",
        "Postcode": "5680"
    },
    {
        "Name": "SEA ELEPHANT",
        "State": "TAS",
        "Postcode": "7256"
    },
    {
        "Name": "KANYA",
        "State": "VIC",
        "Postcode": "3387"
    },
    {
        "Name": "WAROONA",
        "State": "WA",
        "Postcode": "6215"
    },
    {
        "Name": "LOONGANA",
        "State": "TAS",
        "Postcode": "7315"
    },
    {
        "Name": "LYNBROOK",
        "State": "VIC",
        "Postcode": "3975"
    },
    {
        "Name": "BRIBBAREE",
        "State": "NSW",
        "Postcode": "2594"
    },
    {
        "Name": "DAROOBALGIE",
        "State": "NSW",
        "Postcode": "2870"
    },
    {
        "Name": "STANBRIDGE",
        "State": "NSW",
        "Postcode": "2705"
    },
    {
        "Name": "YALLAROI",
        "State": "NSW",
        "Postcode": "2408"
    },
    {
        "Name": "WARAMANGA",
        "State": "ACT",
        "Postcode": "2611"
    },
    {
        "Name": "KOTUPNA",
        "State": "VIC",
        "Postcode": "3638"
    },
    {
        "Name": "WILLAURA",
        "State": "VIC",
        "Postcode": "3379"
    },
    {
        "Name": "HELIDON",
        "State": "QLD",
        "Postcode": "4344"
    },
    {
        "Name": "TICHULAR",
        "State": "NSW",
        "Postcode": "2850"
    },
    {
        "Name": "CASTRA",
        "State": "TAS",
        "Postcode": "7315"
    },
    {
        "Name": "GUYS HILL",
        "State": "VIC",
        "Postcode": "3807"
    },
    {
        "Name": "SAMARIA",
        "State": "VIC",
        "Postcode": "3673"
    },
    {
        "Name": "SUBIACO",
        "State": "WA",
        "Postcode": "6008"
    },
    {
        "Name": "KARLGARIN",
        "State": "WA",
        "Postcode": "6358"
    },
    {
        "Name": "THE GAP",
        "State": "SA",
        "Postcode": "5271"
    },
    {
        "Name": "BRINDABELLA",
        "State": "NSW",
        "Postcode": "2611"
    },
    {
        "Name": "BURNIE",
        "State": "TAS",
        "Postcode": "7320"
    },
    {
        "Name": "BOWSER",
        "State": "VIC",
        "Postcode": "3678"
    },
    {
        "Name": "BUMBALONG",
        "State": "NSW",
        "Postcode": "2626"
    },
    {
        "Name": "SPRINGFIELD LAKES",
        "State": "QLD",
        "Postcode": "4300"
    },
    {
        "Name": "REEDY CREEK",
        "State": "VIC",
        "Postcode": "3658"
    },
    {
        "Name": "MEPUNGA WEST",
        "State": "VIC",
        "Postcode": "3277"
    },
    {
        "Name": "RUBYANNA",
        "State": "QLD",
        "Postcode": "4670"
    },
    {
        "Name": "PORT ALBERT",
        "State": "VIC",
        "Postcode": "3971"
    },
    {
        "Name": "CROUDACE BAY",
        "State": "NSW",
        "Postcode": "2280"
    },
    {
        "Name": "FORSTER",
        "State": "NSW",
        "Postcode": "2428"
    },
    {
        "Name": "CLUNES",
        "State": "NSW",
        "Postcode": "2480"
    },
    {
        "Name": "TOORBUL",
        "State": "QLD",
        "Postcode": "4510"
    },
    {
        "Name": "BRUCEDALE",
        "State": "NSW",
        "Postcode": "2650"
    },
    {
        "Name": "SPRING CREEK",
        "State": "QLD",
        "Postcode": "4343"
    },
    {
        "Name": "GOODWOOD",
        "State": "SA",
        "Postcode": "5034"
    },
    {
        "Name": "LAKE BARRINE",
        "State": "QLD",
        "Postcode": "4884"
    },
    {
        "Name": "HOWARD SPRINGS",
        "State": "NT",
        "Postcode": "0835"
    },
    {
        "Name": "BOAT HARBOUR BEACH",
        "State": "TAS",
        "Postcode": "7321"
    },
    {
        "Name": "BOWER",
        "State": "SA",
        "Postcode": "5374"
    },
    {
        "Name": "JAMBEROO",
        "State": "NSW",
        "Postcode": "2533"
    },
    {
        "Name": "FULHAM",
        "State": "QLD",
        "Postcode": "4313"
    },
    {
        "Name": "MOSQUITO CREEK",
        "State": "QLD",
        "Postcode": "4387"
    },
    {
        "Name": "BIRRIWA",
        "State": "NSW",
        "Postcode": "2844"
    },
    {
        "Name": "MELVILLE FOREST",
        "State": "VIC",
        "Postcode": "3315"
    },
    {
        "Name": "LICOLA NORTH",
        "State": "VIC",
        "Postcode": "3858"
    },
    {
        "Name": "DALGA",
        "State": "QLD",
        "Postcode": "4630"
    },
    {
        "Name": "TUCHEKOI",
        "State": "QLD",
        "Postcode": "4570"
    },
    {
        "Name": "PORT KENNEDY",
        "State": "WA",
        "Postcode": "6172"
    },
    {
        "Name": "ROCKLYN",
        "State": "VIC",
        "Postcode": "3364"
    },
    {
        "Name": "BROGERS CREEK",
        "State": "NSW",
        "Postcode": "2535"
    },
    {
        "Name": "WANDILLUP",
        "State": "WA",
        "Postcode": "6256"
    },
    {
        "Name": "TALLWOOD",
        "State": "NSW",
        "Postcode": "2798"
    },
    {
        "Name": "NAMBAN",
        "State": "WA",
        "Postcode": "6512"
    },
    {
        "Name": "COLLY BLUE",
        "State": "NSW",
        "Postcode": "2343"
    },
    {
        "Name": "MOUNT BYRON",
        "State": "QLD",
        "Postcode": "4312"
    },
    {
        "Name": "PUDDLEDOCK",
        "State": "NSW",
        "Postcode": "2350"
    },
    {
        "Name": "SUNNYDALE",
        "State": "SA",
        "Postcode": "5353"
    },
    {
        "Name": "BOOKABIE",
        "State": "SA",
        "Postcode": "5690"
    },
    {
        "Name": "TEAL POINT",
        "State": "VIC",
        "Postcode": "3579"
    },
    {
        "Name": "DOLPHIN POINT",
        "State": "NSW",
        "Postcode": "2539"
    },
    {
        "Name": "ILPARPA",
        "State": "NT",
        "Postcode": "0873"
    },
    {
        "Name": "MANJIMUP",
        "State": "WA",
        "Postcode": "6258"
    },
    {
        "Name": "KATANNING",
        "State": "WA",
        "Postcode": "6317"
    },
    {
        "Name": "TANBY",
        "State": "QLD",
        "Postcode": "4703"
    },
    {
        "Name": "CANTON BEACH",
        "State": "NSW",
        "Postcode": "2263"
    },
    {
        "Name": "TOOLAMBA",
        "State": "VIC",
        "Postcode": "3614"
    },
    {
        "Name": "ROSEWORTHY",
        "State": "SA",
        "Postcode": "5371"
    },
    {
        "Name": "KINROSS",
        "State": "WA",
        "Postcode": "6028"
    },
    {
        "Name": "ALSTONVALE",
        "State": "NSW",
        "Postcode": "2477"
    },
    {
        "Name": "MOUNT LOFTY",
        "State": "QLD",
        "Postcode": "4350"
    },
    {
        "Name": "BLACKHEATH",
        "State": "NSW",
        "Postcode": "2785"
    },
    {
        "Name": "NORTH AVOCA",
        "State": "NSW",
        "Postcode": "2260"
    },
    {
        "Name": "RIVERBEND",
        "State": "QLD",
        "Postcode": "4280"
    },
    {
        "Name": "WINIFRED",
        "State": "NSW",
        "Postcode": "2631"
    },
    {
        "Name": "ENGLEFIELD",
        "State": "VIC",
        "Postcode": "3407"
    },
    {
        "Name": "GOBBAGOMBALIN",
        "State": "NSW",
        "Postcode": "2650"
    },
    {
        "Name": "SUTHERLAND",
        "State": "VIC",
        "Postcode": "3477"
    },
    {
        "Name": "CAMPBELL TOWN",
        "State": "TAS",
        "Postcode": "7210"
    },
    {
        "Name": "CASSOWARY",
        "State": "QLD",
        "Postcode": "4873"
    },
    {
        "Name": "DUTTON",
        "State": "SA",
        "Postcode": "5356"
    },
    {
        "Name": "KUREELPA",
        "State": "QLD",
        "Postcode": "4560"
    },
    {
        "Name": "MANTON",
        "State": "NT",
        "Postcode": "0837"
    },
    {
        "Name": "DUTTON EAST",
        "State": "SA",
        "Postcode": "5356"
    },
    {
        "Name": "NEALES FLAT",
        "State": "SA",
        "Postcode": "5374"
    },
    {
        "Name": "GAIRDNER",
        "State": "WA",
        "Postcode": "6337"
    },
    {
        "Name": "ARKAROOLA VILLAGE",
        "State": "SA",
        "Postcode": "5701"
    },
    {
        "Name": "CADGEE",
        "State": "NSW",
        "Postcode": "2545"
    },
    {
        "Name": "HAMILTON",
        "State": "VIC",
        "Postcode": "3300"
    },
    {
        "Name": "PYREE",
        "State": "NSW",
        "Postcode": "2540"
    },
    {
        "Name": "BINDA",
        "State": "NSW",
        "Postcode": "2583"
    },
    {
        "Name": "POTATO POINT",
        "State": "NSW",
        "Postcode": "2545"
    },
    {
        "Name": "MINMI",
        "State": "NSW",
        "Postcode": "2287"
    },
    {
        "Name": "BERRILEE",
        "State": "NSW",
        "Postcode": "2159"
    },
    {
        "Name": "BERAT",
        "State": "QLD",
        "Postcode": "4362"
    },
    {
        "Name": "ADAMSTOWN",
        "State": "NSW",
        "Postcode": "2289"
    },
    {
        "Name": "BROOKWATER",
        "State": "QLD",
        "Postcode": "4300"
    },
    {
        "Name": "SOUTH YAAMBA",
        "State": "QLD",
        "Postcode": "4702"
    },
    {
        "Name": "ROKEBY",
        "State": "VIC",
        "Postcode": "3821"
    },
    {
        "Name": "ORFORD",
        "State": "TAS",
        "Postcode": "7190"
    },
    {
        "Name": "PIKE RIVER",
        "State": "SA",
        "Postcode": "5340"
    },
    {
        "Name": "KENSINGTON PARK",
        "State": "SA",
        "Postcode": "5068"
    },
    {
        "Name": "CARRUM DOWNS",
        "State": "VIC",
        "Postcode": "3201"
    },
    {
        "Name": "SHE OAKS",
        "State": "VIC",
        "Postcode": "3331"
    },
    {
        "Name": "FINNIE",
        "State": "QLD",
        "Postcode": "4350"
    },
    {
        "Name": "ROSSLEA",
        "State": "QLD",
        "Postcode": "4812"
    },
    {
        "Name": "BEERWAH",
        "State": "QLD",
        "Postcode": "4519"
    },
    {
        "Name": "FORESTHOME",
        "State": "QLD",
        "Postcode": "4850"
    },
    {
        "Name": "PASCOE VALE SOUTH",
        "State": "VIC",
        "Postcode": "3044"
    },
    {
        "Name": "WALMER",
        "State": "NSW",
        "Postcode": "2820"
    },
    {
        "Name": "PALLARENDA",
        "State": "QLD",
        "Postcode": "4810"
    },
    {
        "Name": "WATTENING",
        "State": "WA",
        "Postcode": "6568"
    },
    {
        "Name": "SOMERSET",
        "State": "TAS",
        "Postcode": "7322"
    },
    {
        "Name": "SOUTH LAKE GRACE",
        "State": "WA",
        "Postcode": "6353"
    },
    {
        "Name": "BONNER",
        "State": "ACT",
        "Postcode": "2914"
    },
    {
        "Name": "MARODIAN",
        "State": "QLD",
        "Postcode": "4570"
    },
    {
        "Name": "KONNONGORRING",
        "State": "WA",
        "Postcode": "6603"
    },
    {
        "Name": "ASHFIELD",
        "State": "NSW",
        "Postcode": "2131"
    },
    {
        "Name": "CURRUMBIN VALLEY",
        "State": "QLD",
        "Postcode": "4223"
    },
    {
        "Name": "KUNWARARA",
        "State": "QLD",
        "Postcode": "4702"
    },
    {
        "Name": "WELLCAMP",
        "State": "QLD",
        "Postcode": "4350"
    },
    {
        "Name": "ARANBANGA",
        "State": "QLD",
        "Postcode": "4625"
    },
    {
        "Name": "DOLLS POINT",
        "State": "NSW",
        "Postcode": "2219"
    },
    {
        "Name": "LINDENOW",
        "State": "VIC",
        "Postcode": "3865"
    },
    {
        "Name": "BACKMEDE",
        "State": "NSW",
        "Postcode": "2470"
    },
    {
        "Name": "BRADFORD",
        "State": "VIC",
        "Postcode": "3463"
    },
    {
        "Name": "NAREMBEEN",
        "State": "WA",
        "Postcode": "6369"
    },
    {
        "Name": "WOLLONGBAR",
        "State": "NSW",
        "Postcode": "2477"
    },
    {
        "Name": "COOMOO COOMOO",
        "State": "NSW",
        "Postcode": "2343"
    },
    {
        "Name": "CREMORNE POINT",
        "State": "NSW",
        "Postcode": "2090"
    },
    {
        "Name": "JUPITER CREEK",
        "State": "SA",
        "Postcode": "5153"
    },
    {
        "Name": "CHAPMAN BORE",
        "State": "SA",
        "Postcode": "5253"
    },
    {
        "Name": "BOGGABILLA",
        "State": "NSW",
        "Postcode": "2409"
    },
    {
        "Name": "MER ISLAND",
        "State": "QLD",
        "Postcode": "4875"
    },
    {
        "Name": "ALBANVALE",
        "State": "VIC",
        "Postcode": "3021"
    },
    {
        "Name": "DICKY BEACH",
        "State": "QLD",
        "Postcode": "4551"
    },
    {
        "Name": "SCOTCHY POCKET",
        "State": "QLD",
        "Postcode": "4570"
    },
    {
        "Name": "PAPUNYA",
        "State": "NT",
        "Postcode": "0872"
    },
    {
        "Name": "YELARBON",
        "State": "QLD",
        "Postcode": "4388"
    },
    {
        "Name": "EAST RIDGLEY",
        "State": "TAS",
        "Postcode": "7321"
    },
    {
        "Name": "HOLBROOK",
        "State": "NSW",
        "Postcode": "2644"
    },
    {
        "Name": "DALKEITH",
        "State": "WA",
        "Postcode": "6009"
    },
    {
        "Name": "MONTELLO",
        "State": "TAS",
        "Postcode": "7320"
    },
    {
        "Name": "SYDNEY",
        "State": "NSW",
        "Postcode": "2000"
    },
    {
        "Name": "NORTH ETON",
        "State": "QLD",
        "Postcode": "4741"
    },
    {
        "Name": "KIMBOLTON",
        "State": "VIC",
        "Postcode": "3551"
    },
    {
        "Name": "MURBKO",
        "State": "SA",
        "Postcode": "5320"
    },
    {
        "Name": "SOUTH YUNDERUP",
        "State": "WA",
        "Postcode": "6208"
    },
    {
        "Name": "GODFREYS CREEK",
        "State": "NSW",
        "Postcode": "2586"
    },
    {
        "Name": "LENEVA",
        "State": "VIC",
        "Postcode": "3691"
    },
    {
        "Name": "WARATAH BAY",
        "State": "VIC",
        "Postcode": "3959"
    },
    {
        "Name": "WYRALLAH",
        "State": "NSW",
        "Postcode": "2480"
    },
    {
        "Name": "MAROOCHY RIVER",
        "State": "QLD",
        "Postcode": "4561"
    },
    {
        "Name": "INMAN VALLEY",
        "State": "SA",
        "Postcode": "5211"
    },
    {
        "Name": "THIRLDENE",
        "State": "NSW",
        "Postcode": "2347"
    },
    {
        "Name": "PREVELLY",
        "State": "WA",
        "Postcode": "6285"
    },
    {
        "Name": "CLAYMORE",
        "State": "NSW",
        "Postcode": "2559"
    },
    {
        "Name": "PAKENHAM",
        "State": "VIC",
        "Postcode": "3810"
    },
    {
        "Name": "LAWLOIT",
        "State": "VIC",
        "Postcode": "3418"
    },
    {
        "Name": "YORKEYS KNOB",
        "State": "QLD",
        "Postcode": "4878"
    },
    {
        "Name": "BASALT",
        "State": "VIC",
        "Postcode": "3460"
    },
    {
        "Name": "SPEED",
        "State": "VIC",
        "Postcode": "3488"
    },
    {
        "Name": "SALISBURY SOUTH",
        "State": "SA",
        "Postcode": "5106"
    },
    {
        "Name": "NINDAROO",
        "State": "QLD",
        "Postcode": "4740"
    },
    {
        "Name": "WOOROLOO",
        "State": "WA",
        "Postcode": "6558"
    },
    {
        "Name": "MUNNO PARA DOWNS",
        "State": "SA",
        "Postcode": "5115"
    },
    {
        "Name": "BERRIMA",
        "State": "NSW",
        "Postcode": "2577"
    },
    {
        "Name": "O'CONNOR",
        "State": "WA",
        "Postcode": "6163"
    },
    {
        "Name": "OXLEY ISLAND",
        "State": "NSW",
        "Postcode": "2430"
    },
    {
        "Name": "BROOMEHILL WEST",
        "State": "WA",
        "Postcode": "6318"
    },
    {
        "Name": "BROWNS PLAINS",
        "State": "QLD",
        "Postcode": "4118"
    },
    {
        "Name": "BULLABULLING",
        "State": "WA",
        "Postcode": "6429"
    },
    {
        "Name": "CARRS CREEK",
        "State": "NSW",
        "Postcode": "2460"
    },
    {
        "Name": "NEWNHAM",
        "State": "TAS",
        "Postcode": "7248"
    },
    {
        "Name": "WOONDUM",
        "State": "QLD",
        "Postcode": "4570"
    },
    {
        "Name": "CEDAR POINT",
        "State": "NSW",
        "Postcode": "2474"
    },
    {
        "Name": "EVERARD CENTRAL",
        "State": "SA",
        "Postcode": "5461"
    },
    {
        "Name": "NYABING",
        "State": "WA",
        "Postcode": "6341"
    },
    {
        "Name": "TERRABELLA",
        "State": "NSW",
        "Postcode": "2818"
    },
    {
        "Name": "ROSE RIVER",
        "State": "VIC",
        "Postcode": "3678"
    },
    {
        "Name": "RENMARK NORTH",
        "State": "SA",
        "Postcode": "5341"
    },
    {
        "Name": "GOSFORTH",
        "State": "NSW",
        "Postcode": "2320"
    },
    {
        "Name": "ESCHOL PARK",
        "State": "NSW",
        "Postcode": "2558"
    },
    {
        "Name": "KUNJIN",
        "State": "WA",
        "Postcode": "6375"
    },
    {
        "Name": "KERRIE",
        "State": "VIC",
        "Postcode": "3434"
    },
    {
        "Name": "OLYMPIC DAM",
        "State": "SA",
        "Postcode": "5725"
    },
    {
        "Name": "ARCTURUS",
        "State": "QLD",
        "Postcode": "4702"
    },
    {
        "Name": "FLOREAT",
        "State": "WA",
        "Postcode": "6014"
    },
    {
        "Name": "MURRAY UPPER",
        "State": "QLD",
        "Postcode": "4854"
    },
    {
        "Name": "COWAN COWAN",
        "State": "QLD",
        "Postcode": "4025"
    },
    {
        "Name": "LESLIE MANOR",
        "State": "VIC",
        "Postcode": "3260"
    },
    {
        "Name": "JACKSON",
        "State": "QLD",
        "Postcode": "4426"
    },
    {
        "Name": "SHORTLAND",
        "State": "NSW",
        "Postcode": "2307"
    },
    {
        "Name": "EBDEN",
        "State": "VIC",
        "Postcode": "3691"
    },
    {
        "Name": "WYNEDEN",
        "State": "NSW",
        "Postcode": "2474"
    },
    {
        "Name": "KINGOWER",
        "State": "VIC",
        "Postcode": "3517"
    },
    {
        "Name": "AMBANIA",
        "State": "WA",
        "Postcode": "6632"
    },
    {
        "Name": "ORROROO",
        "State": "SA",
        "Postcode": "5431"
    },
    {
        "Name": "BALL BAY",
        "State": "QLD",
        "Postcode": "4741"
    },
    {
        "Name": "BARDEN RIDGE",
        "State": "NSW",
        "Postcode": "2234"
    },
    {
        "Name": "CAMBERWELL",
        "State": "VIC",
        "Postcode": "3124"
    },
    {
        "Name": "CAPE CLEVELAND",
        "State": "QLD",
        "Postcode": "4810"
    },
    {
        "Name": "PONDE",
        "State": "SA",
        "Postcode": "5238"
    },
    {
        "Name": "TILBUSTER",
        "State": "NSW",
        "Postcode": "2350"
    },
    {
        "Name": "MUNDALLIO",
        "State": "SA",
        "Postcode": "5700"
    },
    {
        "Name": "ANTHONY",
        "State": "QLD",
        "Postcode": "4310"
    },
    {
        "Name": "WATERVIEW",
        "State": "NSW",
        "Postcode": "2460"
    },
    {
        "Name": "POINT ARKWRIGHT",
        "State": "QLD",
        "Postcode": "4573"
    },
    {
        "Name": "MINTARO",
        "State": "SA",
        "Postcode": "5415"
    },
    {
        "Name": "FERNDALE",
        "State": "VIC",
        "Postcode": "3821"
    },
    {
        "Name": "STRATHDALE",
        "State": "VIC",
        "Postcode": "3550"
    },
    {
        "Name": "ARTHURS LAKE",
        "State": "TAS",
        "Postcode": "7030"
    },
    {
        "Name": "SAPPHIRE CENTRAL",
        "State": "QLD",
        "Postcode": "4702"
    },
    {
        "Name": "WOODPARK",
        "State": "NSW",
        "Postcode": "2164"
    },
    {
        "Name": "LUCKNOW",
        "State": "VIC",
        "Postcode": "3875"
    },
    {
        "Name": "GLENDALE",
        "State": "NSW",
        "Postcode": "2285"
    },
    {
        "Name": "ULYERRA",
        "State": "SA",
        "Postcode": "5633"
    },
    {
        "Name": "BEACONSFIELD",
        "State": "VIC",
        "Postcode": "3807"
    },
    {
        "Name": "ROEBUCK",
        "State": "WA",
        "Postcode": "6725"
    },
    {
        "Name": "BIBBENLUKE",
        "State": "NSW",
        "Postcode": "2632"
    },
    {
        "Name": "DUNWICH",
        "State": "QLD",
        "Postcode": "4183"
    },
    {
        "Name": "EAST CORRIMAL",
        "State": "NSW",
        "Postcode": "2518"
    },
    {
        "Name": "RECHERCHE",
        "State": "TAS",
        "Postcode": "7109"
    },
    {
        "Name": "SHANNONVALE",
        "State": "QLD",
        "Postcode": "4873"
    },
    {
        "Name": "LANEFIELD",
        "State": "QLD",
        "Postcode": "4340"
    },
    {
        "Name": "MYAREE",
        "State": "WA",
        "Postcode": "6154"
    },
    {
        "Name": "RICHMOND LOWLANDS",
        "State": "NSW",
        "Postcode": "2753"
    },
    {
        "Name": "GEORGE TOWN",
        "State": "TAS",
        "Postcode": "7253"
    },
    {
        "Name": "ORMOND",
        "State": "VIC",
        "Postcode": "3204"
    },
    {
        "Name": "HUGH",
        "State": "NT",
        "Postcode": "0872"
    },
    {
        "Name": "PLAINBY",
        "State": "QLD",
        "Postcode": "4355"
    },
    {
        "Name": "STAVERTON",
        "State": "TAS",
        "Postcode": "7306"
    },
    {
        "Name": "EAST KURRAJONG",
        "State": "NSW",
        "Postcode": "2758"
    },
    {
        "Name": "LORNE",
        "State": "NSW",
        "Postcode": "2439"
    },
    {
        "Name": "FIREFLY",
        "State": "NSW",
        "Postcode": "2429"
    },
    {
        "Name": "NOONAMAH",
        "State": "NT",
        "Postcode": "0837"
    },
    {
        "Name": "STANHOPE",
        "State": "VIC",
        "Postcode": "3623"
    },
    {
        "Name": "WOOLOOGA",
        "State": "QLD",
        "Postcode": "4570"
    },
    {
        "Name": "MILFORD",
        "State": "QLD",
        "Postcode": "4310"
    },
    {
        "Name": "MOONEY MOONEY CREEK",
        "State": "NSW",
        "Postcode": "2250"
    },
    {
        "Name": "POLISH HILL RIVER",
        "State": "SA",
        "Postcode": "5453"
    },
    {
        "Name": "WOLLUN",
        "State": "NSW",
        "Postcode": "2354"
    },
    {
        "Name": "SOUTH DURRAS",
        "State": "NSW",
        "Postcode": "2536"
    },
    {
        "Name": "TANDAROOK",
        "State": "VIC",
        "Postcode": "3260"
    },
    {
        "Name": "LITTLE TOPAR",
        "State": "NSW",
        "Postcode": "2880"
    },
    {
        "Name": "LEASINGHAM",
        "State": "SA",
        "Postcode": "5452"
    },
    {
        "Name": "EDDYSTONE",
        "State": "TAS",
        "Postcode": "7264"
    },
    {
        "Name": "MOUNT GARDINER",
        "State": "QLD",
        "Postcode": "4705"
    },
    {
        "Name": "PLENTY",
        "State": "VIC",
        "Postcode": "3090"
    },
    {
        "Name": "FORSAYTH",
        "State": "QLD",
        "Postcode": "4871"
    },
    {
        "Name": "CHANDLERS CREEK",
        "State": "VIC",
        "Postcode": "3890"
    },
    {
        "Name": "TANSEY",
        "State": "QLD",
        "Postcode": "4601"
    },
    {
        "Name": "EAST CORAKI",
        "State": "NSW",
        "Postcode": "2471"
    },
    {
        "Name": "BATTERY HILL",
        "State": "QLD",
        "Postcode": "4551"
    },
    {
        "Name": "CRACE",
        "State": "ACT",
        "Postcode": "2911"
    },
    {
        "Name": "MYLNEFORD",
        "State": "NSW",
        "Postcode": "2460"
    },
    {
        "Name": "EVANS HEAD",
        "State": "NSW",
        "Postcode": "2473"
    },
    {
        "Name": "KAROOLA",
        "State": "TAS",
        "Postcode": "7267"
    },
    {
        "Name": "GRAY",
        "State": "NT",
        "Postcode": "0830"
    },
    {
        "Name": "KALTJITI",
        "State": "SA",
        "Postcode": "0872"
    },
    {
        "Name": "GREENSLOPES",
        "State": "QLD",
        "Postcode": "4120"
    },
    {
        "Name": "RAND",
        "State": "NSW",
        "Postcode": "2642"
    },
    {
        "Name": "TERRICK TERRICK",
        "State": "VIC",
        "Postcode": "3575"
    },
    {
        "Name": "MYALLA",
        "State": "NSW",
        "Postcode": "2630"
    },
    {
        "Name": "COOYERDOO",
        "State": "SA",
        "Postcode": "5611"
    },
    {
        "Name": "CENTRAL MACDONALD",
        "State": "NSW",
        "Postcode": "2775"
    },
    {
        "Name": "BOMBAY",
        "State": "NSW",
        "Postcode": "2622"
    },
    {
        "Name": "HILL END",
        "State": "NSW",
        "Postcode": "2850"
    },
    {
        "Name": "BUNGARBY",
        "State": "NSW",
        "Postcode": "2630"
    },
    {
        "Name": "TOONGABBIE",
        "State": "NSW",
        "Postcode": "2146"
    },
    {
        "Name": "NULLICA",
        "State": "NSW",
        "Postcode": "2551"
    },
    {
        "Name": "CHINNOCK",
        "State": "NSW",
        "Postcode": "2550"
    },
    {
        "Name": "BLACKETT",
        "State": "NSW",
        "Postcode": "2770"
    },
    {
        "Name": "BAXTER",
        "State": "VIC",
        "Postcode": "3911"
    },
    {
        "Name": "BURRILL LAKE",
        "State": "NSW",
        "Postcode": "2539"
    },
    {
        "Name": "ROCKY CAPE",
        "State": "TAS",
        "Postcode": "7321"
    },
    {
        "Name": "BLUE BAY",
        "State": "NSW",
        "Postcode": "2261"
    },
    {
        "Name": "TOWNVIEW",
        "State": "QLD",
        "Postcode": "4825"
    },
    {
        "Name": "OCEAN VISTA",
        "State": "TAS",
        "Postcode": "7320"
    },
    {
        "Name": "NIKENBAH",
        "State": "QLD",
        "Postcode": "4655"
    },
    {
        "Name": "CALLAGHAN",
        "State": "NSW",
        "Postcode": "2308"
    },
    {
        "Name": "WANORA",
        "State": "QLD",
        "Postcode": "4306"
    },
    {
        "Name": "WEST BUNDALEER",
        "State": "SA",
        "Postcode": "5491"
    },
    {
        "Name": "SCARNESS",
        "State": "QLD",
        "Postcode": "4655"
    },
    {
        "Name": "KATRINE",
        "State": "WA",
        "Postcode": "6401"
    },
    {
        "Name": "BONEGILLA",
        "State": "VIC",
        "Postcode": "3691"
    },
    {
        "Name": "BUNGABAN",
        "State": "QLD",
        "Postcode": "4419"
    },
    {
        "Name": "MOONDYNE",
        "State": "WA",
        "Postcode": "6567"
    },
    {
        "Name": "BLACKSOIL",
        "State": "QLD",
        "Postcode": "4306"
    },
    {
        "Name": "MANNUS",
        "State": "NSW",
        "Postcode": "2653"
    },
    {
        "Name": "EAST MELBOURNE",
        "State": "VIC",
        "Postcode": "3002"
    },
    {
        "Name": "MULATAGA",
        "State": "WA",
        "Postcode": "6714"
    },
    {
        "Name": "SVENSSON HEIGHTS",
        "State": "QLD",
        "Postcode": "4670"
    },
    {
        "Name": "ARGOON",
        "State": "NSW",
        "Postcode": "2707"
    },
    {
        "Name": "CRACKENBACK",
        "State": "NSW",
        "Postcode": "2627"
    },
    {
        "Name": "LEINSTER",
        "State": "WA",
        "Postcode": "6437"
    },
    {
        "Name": "AVOCA BEACH",
        "State": "NSW",
        "Postcode": "2251"
    },
    {
        "Name": "NEWRYBAR",
        "State": "NSW",
        "Postcode": "2479"
    },
    {
        "Name": "MARDELLA",
        "State": "WA",
        "Postcode": "6125"
    },
    {
        "Name": "SPRINGLANDS",
        "State": "QLD",
        "Postcode": "4804"
    },
    {
        "Name": "OYSTER BAY",
        "State": "NSW",
        "Postcode": "2225"
    },
    {
        "Name": "COWES",
        "State": "VIC",
        "Postcode": "3922"
    },
    {
        "Name": "CLUB TERRACE",
        "State": "VIC",
        "Postcode": "3889"
    },
    {
        "Name": "ARATULA",
        "State": "NSW",
        "Postcode": "2714"
    },
    {
        "Name": "EGLINTON",
        "State": "NSW",
        "Postcode": "2795"
    },
    {
        "Name": "STEWARTS RIVER",
        "State": "NSW",
        "Postcode": "2443"
    },
    {
        "Name": "MONDROOK",
        "State": "NSW",
        "Postcode": "2430"
    },
    {
        "Name": "WIDGEEGOARA",
        "State": "QLD",
        "Postcode": "4490"
    },
    {
        "Name": "MOUNT FOSTER",
        "State": "NSW",
        "Postcode": "2824"
    },
    {
        "Name": "ROSETOWN",
        "State": "SA",
        "Postcode": "5275"
    },
    {
        "Name": "TAPPING",
        "State": "WA",
        "Postcode": "6065"
    },
    {
        "Name": "ABERNETHY",
        "State": "NSW",
        "Postcode": "2325"
    },
    {
        "Name": "MILLAA MILLAA",
        "State": "QLD",
        "Postcode": "4886"
    },
    {
        "Name": "AMBARVALE",
        "State": "NSW",
        "Postcode": "2560"
    },
    {
        "Name": "TALARM",
        "State": "NSW",
        "Postcode": "2447"
    },
    {
        "Name": "YULABILLA",
        "State": "QLD",
        "Postcode": "4416"
    },
    {
        "Name": "BRENTWOOD",
        "State": "WA",
        "Postcode": "6153"
    },
    {
        "Name": "BEJOORDING",
        "State": "WA",
        "Postcode": "6566"
    },
    {
        "Name": "TAREE",
        "State": "NSW",
        "Postcode": "2430"
    },
    {
        "Name": "LEYBURN",
        "State": "QLD",
        "Postcode": "4365"
    },
    {
        "Name": "WONDALLI",
        "State": "QLD",
        "Postcode": "4390"
    },
    {
        "Name": "THORNBOROUGH",
        "State": "QLD",
        "Postcode": "4871"
    },
    {
        "Name": "GLEN ELGIN",
        "State": "NSW",
        "Postcode": "2370"
    },
    {
        "Name": "CEDAR VALE",
        "State": "QLD",
        "Postcode": "4285"
    },
    {
        "Name": "CASTLEMAINE",
        "State": "VIC",
        "Postcode": "3450"
    },
    {
        "Name": "TATTON",
        "State": "NSW",
        "Postcode": "2650"
    },
    {
        "Name": "MARCHAGEE",
        "State": "WA",
        "Postcode": "6515"
    },
    {
        "Name": "ALBION PARK RAIL",
        "State": "NSW",
        "Postcode": "2527"
    },
    {
        "Name": "BROWN RANGE",
        "State": "WA",
        "Postcode": "6701"
    },
    {
        "Name": "SAVERNAKE",
        "State": "NSW",
        "Postcode": "2646"
    },
    {
        "Name": "MCMILLANS",
        "State": "VIC",
        "Postcode": "3568"
    },
    {
        "Name": "ELERMORE VALE",
        "State": "NSW",
        "Postcode": "2287"
    },
    {
        "Name": "WOODVILLE PARK",
        "State": "SA",
        "Postcode": "5011"
    },
    {
        "Name": "CARCALGONG",
        "State": "NSW",
        "Postcode": "2850"
    },
    {
        "Name": "HOLMWOOD",
        "State": "WA",
        "Postcode": "6522"
    },
    {
        "Name": "EIGHT MILE CREEK",
        "State": "QLD",
        "Postcode": "4807"
    },
    {
        "Name": "BUCHANAN",
        "State": "NT",
        "Postcode": "0852"
    },
    {
        "Name": "MOOLPA",
        "State": "NSW",
        "Postcode": "2734"
    },
    {
        "Name": "JAGUMBA",
        "State": "NSW",
        "Postcode": "2642"
    },
    {
        "Name": "MINBURRA STATION",
        "State": "SA",
        "Postcode": "5431"
    },
    {
        "Name": "GOOLWA NORTH",
        "State": "SA",
        "Postcode": "5214"
    },
    {
        "Name": "YANDERRA",
        "State": "NSW",
        "Postcode": "2574"
    },
    {
        "Name": "ELAMAN CREEK",
        "State": "QLD",
        "Postcode": "4552"
    },
    {
        "Name": "SHELLEY",
        "State": "VIC",
        "Postcode": "3701"
    },
    {
        "Name": "MONTMORENCY",
        "State": "VIC",
        "Postcode": "3094"
    },
    {
        "Name": "BOCONNOC PARK",
        "State": "SA",
        "Postcode": "5453"
    },
    {
        "Name": "NEWLANDS",
        "State": "QLD",
        "Postcode": "4804"
    },
    {
        "Name": "CLIFTON HILLS STATION",
        "State": "SA",
        "Postcode": "5733"
    },
    {
        "Name": "SOUTH GRANVILLE",
        "State": "NSW",
        "Postcode": "2142"
    },
    {
        "Name": "IWANTJA",
        "State": "SA",
        "Postcode": "0872"
    },
    {
        "Name": "YENGARIE",
        "State": "QLD",
        "Postcode": "4650"
    },
    {
        "Name": "MAIRJIMMY",
        "State": "NSW",
        "Postcode": "2716"
    },
    {
        "Name": "GRAMPUS",
        "State": "SA",
        "Postcode": "5440"
    },
    {
        "Name": "ERUDGERE",
        "State": "NSW",
        "Postcode": "2850"
    },
    {
        "Name": "BACK PLAINS",
        "State": "QLD",
        "Postcode": "4361"
    },
    {
        "Name": "RAVENSTHORPE",
        "State": "WA",
        "Postcode": "6346"
    },
    {
        "Name": "THOOPARA",
        "State": "QLD",
        "Postcode": "4800"
    },
    {
        "Name": "KOPPIO",
        "State": "SA",
        "Postcode": "5607"
    },
    {
        "Name": "KINGSLEY",
        "State": "WA",
        "Postcode": "6026"
    },
    {
        "Name": "ABERDEEN",
        "State": "NSW",
        "Postcode": "2336"
    },
    {
        "Name": "ROSEMEATH",
        "State": "NSW",
        "Postcode": "2632"
    },
    {
        "Name": "WEST MOOREVILLE",
        "State": "TAS",
        "Postcode": "7321"
    },
    {
        "Name": "LYNTON",
        "State": "SA",
        "Postcode": "5062"
    },
    {
        "Name": "PINNACLE",
        "State": "QLD",
        "Postcode": "4741"
    },
    {
        "Name": "MUCKADILLA",
        "State": "QLD",
        "Postcode": "4461"
    },
    {
        "Name": "MULBRING",
        "State": "NSW",
        "Postcode": "2323"
    },
    {
        "Name": "ROSSLYN PARK",
        "State": "SA",
        "Postcode": "5072"
    },
    {
        "Name": "DEVON PARK",
        "State": "QLD",
        "Postcode": "4401"
    },
    {
        "Name": "FREEMANS",
        "State": "NSW",
        "Postcode": "2259"
    },
    {
        "Name": "SCOTTS HEAD",
        "State": "NSW",
        "Postcode": "2447"
    },
    {
        "Name": "ST JAMES",
        "State": "VIC",
        "Postcode": "3727"
    },
    {
        "Name": "BERRY MOUNTAIN",
        "State": "NSW",
        "Postcode": "2535"
    },
    {
        "Name": "WEENGALLON",
        "State": "QLD",
        "Postcode": "4497"
    },
    {
        "Name": "DOCTORS FLAT",
        "State": "VIC",
        "Postcode": "3895"
    },
    {
        "Name": "QUILPIE",
        "State": "QLD",
        "Postcode": "4480"
    },
    {
        "Name": "GINOONDAN",
        "State": "QLD",
        "Postcode": "4625"
    },
    {
        "Name": "MOODIARRUP",
        "State": "WA",
        "Postcode": "6393"
    },
    {
        "Name": "GREEN ISLAND",
        "State": "QLD",
        "Postcode": "4871"
    },
    {
        "Name": "CLIFTON BEACH",
        "State": "TAS",
        "Postcode": "7020"
    },
    {
        "Name": "RIDGEWOOD",
        "State": "QLD",
        "Postcode": "4563"
    },
    {
        "Name": "JIMBOUR WEST",
        "State": "QLD",
        "Postcode": "4406"
    },
    {
        "Name": "PORT FAIRY",
        "State": "VIC",
        "Postcode": "3284"
    },
    {
        "Name": "EAGLEFIELD",
        "State": "QLD",
        "Postcode": "4742"
    },
    {
        "Name": "TOGARA",
        "State": "QLD",
        "Postcode": "4702"
    },
    {
        "Name": "COODANUP",
        "State": "WA",
        "Postcode": "6210"
    },
    {
        "Name": "AMITY",
        "State": "QLD",
        "Postcode": "4183"
    },
    {
        "Name": "MUNDULLA WEST",
        "State": "SA",
        "Postcode": "5270"
    },
    {
        "Name": "TOMAHAWK",
        "State": "TAS",
        "Postcode": "7262"
    },
    {
        "Name": "KOONGAL",
        "State": "QLD",
        "Postcode": "4701"
    },
    {
        "Name": "UNDERCLIFFE",
        "State": "NSW",
        "Postcode": "4380"
    },
    {
        "Name": "WERMATONG",
        "State": "NSW",
        "Postcode": "2720"
    },
    {
        "Name": "MOUNT HOREB",
        "State": "NSW",
        "Postcode": "2729"
    },
    {
        "Name": "MULLAWAY",
        "State": "NSW",
        "Postcode": "2456"
    },
    {
        "Name": "DINOGA",
        "State": "NSW",
        "Postcode": "2404"
    },
    {
        "Name": "ELLERSTON",
        "State": "NSW",
        "Postcode": "2337"
    },
    {
        "Name": "WEST ROCKHAMPTON",
        "State": "QLD",
        "Postcode": "4700"
    },
    {
        "Name": "PATERSONIA",
        "State": "TAS",
        "Postcode": "7259"
    },
    {
        "Name": "INDEE",
        "State": "WA",
        "Postcode": "6721"
    },
    {
        "Name": "BELVEDERE",
        "State": "QLD",
        "Postcode": "4860"
    },
    {
        "Name": "LYMWOOD",
        "State": "TAS",
        "Postcode": "7256"
    },
    {
        "Name": "GUNNEDAH",
        "State": "NSW",
        "Postcode": "2380"
    },
    {
        "Name": "INSKIP",
        "State": "QLD",
        "Postcode": "4581"
    },
    {
        "Name": "WANDAL",
        "State": "QLD",
        "Postcode": "4700"
    },
    {
        "Name": "UPPER EDEN CREEK",
        "State": "NSW",
        "Postcode": "2474"
    },
    {
        "Name": "BOWEYA",
        "State": "VIC",
        "Postcode": "3675"
    },
    {
        "Name": "WOOLSHED",
        "State": "QLD",
        "Postcode": "4340"
    },
    {
        "Name": "GLENDARUEL",
        "State": "VIC",
        "Postcode": "3363"
    },
    {
        "Name": "WELLINGTON VALE",
        "State": "NSW",
        "Postcode": "2371"
    },
    {
        "Name": "MOUNT WILLIAM",
        "State": "TAS",
        "Postcode": "7264"
    },
    {
        "Name": "SPENCER",
        "State": "NSW",
        "Postcode": "2775"
    },
    {
        "Name": "BROOKSTEAD",
        "State": "QLD",
        "Postcode": "4364"
    },
    {
        "Name": "COTTESLOE",
        "State": "WA",
        "Postcode": "6011"
    },
    {
        "Name": "NORTH MANLY",
        "State": "NSW",
        "Postcode": "2100"
    },
    {
        "Name": "GOOLWA BEACH",
        "State": "SA",
        "Postcode": "5214"
    },
    {
        "Name": "PIONEER",
        "State": "TAS",
        "Postcode": "7264"
    },
    {
        "Name": "WOONONA",
        "State": "NSW",
        "Postcode": "2517"
    },
    {
        "Name": "GORMANDALE",
        "State": "VIC",
        "Postcode": "3873"
    },
    {
        "Name": "UCARTY",
        "State": "WA",
        "Postcode": "6462"
    },
    {
        "Name": "KYNUNA",
        "State": "QLD",
        "Postcode": "4823"
    },
    {
        "Name": "BUNGEET",
        "State": "VIC",
        "Postcode": "3726"
    },
    {
        "Name": "BEND OF ISLANDS",
        "State": "VIC",
        "Postcode": "3097"
    },
    {
        "Name": "MOUNT GIPPS",
        "State": "QLD",
        "Postcode": "4285"
    },
    {
        "Name": "FLETCHER CREEK",
        "State": "QLD",
        "Postcode": "4714"
    },
    {
        "Name": "BIGGARA",
        "State": "VIC",
        "Postcode": "3707"
    },
    {
        "Name": "MACCLESFIELD",
        "State": "SA",
        "Postcode": "5153"
    },
    {
        "Name": "MOZART",
        "State": "NSW",
        "Postcode": "2787"
    },
    {
        "Name": "OWENS CREEK",
        "State": "QLD",
        "Postcode": "4741"
    },
    {
        "Name": "GOLDSBOROUGH",
        "State": "QLD",
        "Postcode": "4865"
    },
    {
        "Name": "MOUNT ZEIL",
        "State": "NT",
        "Postcode": "0872"
    },
    {
        "Name": "THEEBINE",
        "State": "QLD",
        "Postcode": "4570"
    },
    {
        "Name": "KEILOR PARK",
        "State": "VIC",
        "Postcode": "3042"
    },
    {
        "Name": "GLADSTONE",
        "State": "NSW",
        "Postcode": "2440"
    },
    {
        "Name": "MOUNT HELEN",
        "State": "VIC",
        "Postcode": "3350"
    },
    {
        "Name": "RUN-O-WATERS",
        "State": "NSW",
        "Postcode": "2580"
    },
    {
        "Name": "MYLESTOM",
        "State": "NSW",
        "Postcode": "2454"
    },
    {
        "Name": "LYSTERFIELD SOUTH",
        "State": "VIC",
        "Postcode": "3156"
    },
    {
        "Name": "FLYNN",
        "State": "WA",
        "Postcode": "6302"
    },
    {
        "Name": "GABLES",
        "State": "NSW",
        "Postcode": "2765"
    },
    {
        "Name": "CABRAMATTA WEST",
        "State": "NSW",
        "Postcode": "2166"
    },
    {
        "Name": "KUNGALA",
        "State": "NSW",
        "Postcode": "2460"
    },
    {
        "Name": "EATON",
        "State": "QLD",
        "Postcode": "4860"
    },
    {
        "Name": "FELTON SOUTH",
        "State": "QLD",
        "Postcode": "4358"
    },
    {
        "Name": "ALBANY CREEK",
        "State": "QLD",
        "Postcode": "4035"
    },
    {
        "Name": "DOUGLAS POINT",
        "State": "SA",
        "Postcode": "5601"
    },
    {
        "Name": "RUBY",
        "State": "VIC",
        "Postcode": "3953"
    },
    {
        "Name": "PORT OF BRISBANE",
        "State": "QLD",
        "Postcode": "4178"
    },
    {
        "Name": "GRATTAI",
        "State": "NSW",
        "Postcode": "2850"
    },
    {
        "Name": "KING SCRUB",
        "State": "QLD",
        "Postcode": "4521"
    },
    {
        "Name": "MOUNT MARTHA",
        "State": "VIC",
        "Postcode": "3934"
    },
    {
        "Name": "MOLLYMOOK",
        "State": "NSW",
        "Postcode": "2539"
    },
    {
        "Name": "BOLWARRA",
        "State": "VIC",
        "Postcode": "3305"
    },
    {
        "Name": "HOPETOUN",
        "State": "VIC",
        "Postcode": "3396"
    },
    {
        "Name": "ELGIN VALE",
        "State": "QLD",
        "Postcode": "4615"
    },
    {
        "Name": "TOORA",
        "State": "VIC",
        "Postcode": "3962"
    },
    {
        "Name": "MORNINGTON",
        "State": "QLD",
        "Postcode": "4825"
    },
    {
        "Name": "SHAUGH",
        "State": "SA",
        "Postcode": "5267"
    },
    {
        "Name": "BLACKBURN",
        "State": "VIC",
        "Postcode": "3130"
    },
    {
        "Name": "BORA RIDGE",
        "State": "NSW",
        "Postcode": "2471"
    },
    {
        "Name": "GLENDEN",
        "State": "QLD",
        "Postcode": "4743"
    },
    {
        "Name": "GOOLMA",
        "State": "NSW",
        "Postcode": "2852"
    },
    {
        "Name": "BUNDABERG NORTH",
        "State": "QLD",
        "Postcode": "4670"
    },
    {
        "Name": "COBBADAH",
        "State": "NSW",
        "Postcode": "2347"
    },
    {
        "Name": "NIGHTCLIFF",
        "State": "NT",
        "Postcode": "0810"
    },
    {
        "Name": "HOME ISLAND",
        "State": "OT",
        "Postcode": "6799"
    },
    {
        "Name": "WONDUNNA",
        "State": "QLD",
        "Postcode": "4655"
    },
    {
        "Name": "MUTCHILBA",
        "State": "QLD",
        "Postcode": "4872"
    },
    {
        "Name": "GARBUTT",
        "State": "QLD",
        "Postcode": "4814"
    },
    {
        "Name": "BOORAL",
        "State": "QLD",
        "Postcode": "4655"
    },
    {
        "Name": "VARLEY",
        "State": "WA",
        "Postcode": "6355"
    },
    {
        "Name": "RADFORD",
        "State": "QLD",
        "Postcode": "4307"
    },
    {
        "Name": "RANGEVILLE",
        "State": "QLD",
        "Postcode": "4350"
    },
    {
        "Name": "GIRRAWEEN",
        "State": "QLD",
        "Postcode": "4382"
    },
    {
        "Name": "THORNLEA",
        "State": "SA",
        "Postcode": "5280"
    },
    {
        "Name": "LAKE TORRENS STATION",
        "State": "SA",
        "Postcode": "5713"
    },
    {
        "Name": "PEEDAMULLA",
        "State": "WA",
        "Postcode": "6710"
    },
    {
        "Name": "FORESTER",
        "State": "TAS",
        "Postcode": "7260"
    },
    {
        "Name": "WILLOW SPRINGS",
        "State": "SA",
        "Postcode": "5434"
    },
    {
        "Name": "INNESTON",
        "State": "SA",
        "Postcode": "5577"
    },
    {
        "Name": "SUGARLOAF",
        "State": "QLD",
        "Postcode": "4380"
    },
    {
        "Name": "WYCARBAH",
        "State": "QLD",
        "Postcode": "4702"
    },
    {
        "Name": "FAWCETT",
        "State": "VIC",
        "Postcode": "3714"
    },
    {
        "Name": "CRAFERS WEST",
        "State": "SA",
        "Postcode": "5152"
    },
    {
        "Name": "BAJOOL",
        "State": "QLD",
        "Postcode": "4699"
    },
    {
        "Name": "KNOCKWOOD",
        "State": "VIC",
        "Postcode": "3723"
    },
    {
        "Name": "SPRINGVALE SOUTH",
        "State": "VIC",
        "Postcode": "3172"
    },
    {
        "Name": "WINMALEE",
        "State": "NSW",
        "Postcode": "2777"
    },
    {
        "Name": "FERNANCES CROSSING",
        "State": "NSW",
        "Postcode": "2325"
    },
    {
        "Name": "UPPER DUROBY",
        "State": "NSW",
        "Postcode": "2486"
    },
    {
        "Name": "CUMBALUM",
        "State": "NSW",
        "Postcode": "2478"
    },
    {
        "Name": "KATHERINE SOUTH",
        "State": "NT",
        "Postcode": "0850"
    },
    {
        "Name": "CARLTON RIVER",
        "State": "TAS",
        "Postcode": "7173"
    },
    {
        "Name": "JAUNTER",
        "State": "NSW",
        "Postcode": "2787"
    },
    {
        "Name": "LIGHT PASS",
        "State": "SA",
        "Postcode": "5355"
    },
    {
        "Name": "IVERAGH",
        "State": "QLD",
        "Postcode": "4680"
    },
    {
        "Name": "PERPONDA",
        "State": "SA",
        "Postcode": "5308"
    },
    {
        "Name": "RODGERS CREEK",
        "State": "QLD",
        "Postcode": "4370"
    },
    {
        "Name": "BALGOWAN",
        "State": "SA",
        "Postcode": "5573"
    },
    {
        "Name": "BURRA EASTERN DISTRICTS",
        "State": "SA",
        "Postcode": "5417"
    },
    {
        "Name": "OOTHA",
        "State": "NSW",
        "Postcode": "2875"
    },
    {
        "Name": "MOUNT EMLYN",
        "State": "QLD",
        "Postcode": "4357"
    },
    {
        "Name": "SOLDIERS HILL",
        "State": "VIC",
        "Postcode": "3350"
    },
    {
        "Name": "LORD HOWE ISLAND",
        "State": "NSW",
        "Postcode": "2898"
    },
    {
        "Name": "PINGELLY",
        "State": "WA",
        "Postcode": "6308"
    },
    {
        "Name": "DALE",
        "State": "WA",
        "Postcode": "6304"
    },
    {
        "Name": "TABULAM",
        "State": "NSW",
        "Postcode": "2469"
    },
    {
        "Name": "FOX",
        "State": "SA",
        "Postcode": "5272"
    },
    {
        "Name": "DARLING POINT",
        "State": "NSW",
        "Postcode": "2027"
    },
    {
        "Name": "LINDENOW SOUTH",
        "State": "VIC",
        "Postcode": "3875"
    },
    {
        "Name": "PINE HILL",
        "State": "SA",
        "Postcode": "5269"
    },
    {
        "Name": "MARGATE",
        "State": "QLD",
        "Postcode": "4019"
    },
    {
        "Name": "CRYNA",
        "State": "QLD",
        "Postcode": "4285"
    },
    {
        "Name": "HANNAM VALE",
        "State": "NSW",
        "Postcode": "2443"
    },
    {
        "Name": "FRESHWATER",
        "State": "QLD",
        "Postcode": "4870"
    },
    {
        "Name": "CLOVER FLAT",
        "State": "VIC",
        "Postcode": "3315"
    },
    {
        "Name": "BULGA FOREST",
        "State": "NSW",
        "Postcode": "2429"
    },
    {
        "Name": "BURNLEY",
        "State": "VIC",
        "Postcode": "3121"
    },
    {
        "Name": "REGENTS PARK",
        "State": "QLD",
        "Postcode": "4118"
    },
    {
        "Name": "PALLARA",
        "State": "QLD",
        "Postcode": "4110"
    },
    {
        "Name": "BALD KNOB",
        "State": "QLD",
        "Postcode": "4552"
    },
    {
        "Name": "MILLS LAKE",
        "State": "WA",
        "Postcode": "6336"
    },
    {
        "Name": "GIFFARD",
        "State": "VIC",
        "Postcode": "3851"
    },
    {
        "Name": "MOUNTAIN TOP",
        "State": "NSW",
        "Postcode": "2480"
    },
    {
        "Name": "COOLABAH",
        "State": "NSW",
        "Postcode": "2831"
    },
    {
        "Name": "LOWER NORTON",
        "State": "VIC",
        "Postcode": "3401"
    },
    {
        "Name": "HIGHETT",
        "State": "VIC",
        "Postcode": "3190"
    },
    {
        "Name": "INNISPLAIN",
        "State": "QLD",
        "Postcode": "4285"
    },
    {
        "Name": "MOONIE",
        "State": "QLD",
        "Postcode": "4406"
    },
    {
        "Name": "GOOMBOORIAN",
        "State": "QLD",
        "Postcode": "4570"
    },
    {
        "Name": "DALYELLUP",
        "State": "WA",
        "Postcode": "6230"
    },
    {
        "Name": "THOMAS PLAIN",
        "State": "SA",
        "Postcode": "5554"
    },
    {
        "Name": "PLEASURE POINT",
        "State": "NSW",
        "Postcode": "2172"
    },
    {
        "Name": "TANAWHA",
        "State": "QLD",
        "Postcode": "4556"
    },
    {
        "Name": "MYRTLE CREEK",
        "State": "VIC",
        "Postcode": "3551"
    },
    {
        "Name": "WITERA",
        "State": "SA",
        "Postcode": "5671"
    },
    {
        "Name": "HUON ISLAND",
        "State": "TAS",
        "Postcode": "7112"
    },
    {
        "Name": "UNLEY PARK",
        "State": "SA",
        "Postcode": "5061"
    },
    {
        "Name": "MANDALONG",
        "State": "NSW",
        "Postcode": "2264"
    },
    {
        "Name": "NANGETTY",
        "State": "WA",
        "Postcode": "6522"
    },
    {
        "Name": "PARRYVILLE",
        "State": "WA",
        "Postcode": "6333"
    },
    {
        "Name": "KATAMATITE EAST",
        "State": "VIC",
        "Postcode": "3649"
    },
    {
        "Name": "LAKE MUNMORAH",
        "State": "NSW",
        "Postcode": "2259"
    },
    {
        "Name": "COONAWARRA",
        "State": "NT",
        "Postcode": "0820"
    },
    {
        "Name": "GROPER CREEK",
        "State": "QLD",
        "Postcode": "4806"
    },
    {
        "Name": "COORADA",
        "State": "QLD",
        "Postcode": "4420"
    },
    {
        "Name": "BARKERS CREEK",
        "State": "VIC",
        "Postcode": "3451"
    },
    {
        "Name": "MIGHELL",
        "State": "QLD",
        "Postcode": "4860"
    },
    {
        "Name": "MULDU",
        "State": "QLD",
        "Postcode": "4401"
    },
    {
        "Name": "BROWN HILL CREEK",
        "State": "SA",
        "Postcode": "5062"
    },
    {
        "Name": "MIDDLE POCKET",
        "State": "NSW",
        "Postcode": "2483"
    },
    {
        "Name": "GREENLANDS",
        "State": "NSW",
        "Postcode": "2330"
    },
    {
        "Name": "BAROOGA",
        "State": "NSW",
        "Postcode": "3644"
    },
    {
        "Name": "BLUEYS BEACH",
        "State": "NSW",
        "Postcode": "2428"
    },
    {
        "Name": "COLLAROY PLATEAU",
        "State": "NSW",
        "Postcode": "2097"
    },
    {
        "Name": "CARDIGAN VILLAGE",
        "State": "VIC",
        "Postcode": "3352"
    },
    {
        "Name": "TRAYNORS LAGOON",
        "State": "VIC",
        "Postcode": "3477"
    },
    {
        "Name": "BAKEWELL",
        "State": "NT",
        "Postcode": "0832"
    },
    {
        "Name": "KRINGIN",
        "State": "SA",
        "Postcode": "5304"
    },
    {
        "Name": "GEORGES PLAINS",
        "State": "NSW",
        "Postcode": "2795"
    },
    {
        "Name": "PULLABOOKA",
        "State": "NSW",
        "Postcode": "2810"
    },
    {
        "Name": "PIEDMONT",
        "State": "VIC",
        "Postcode": "3833"
    },
    {
        "Name": "CRYSTAL CREEK",
        "State": "NSW",
        "Postcode": "2484"
    },
    {
        "Name": "KANGAROO POINT",
        "State": "NSW",
        "Postcode": "2224"
    },
    {
        "Name": "FITZGERALD CREEK",
        "State": "QLD",
        "Postcode": "4860"
    },
    {
        "Name": "THREE SPRINGS",
        "State": "WA",
        "Postcode": "6519"
    },
    {
        "Name": "BOWMAN FARM",
        "State": "NSW",
        "Postcode": "2422"
    },
    {
        "Name": "WALLA WALLA",
        "State": "NSW",
        "Postcode": "2659"
    },
    {
        "Name": "CUTTAGEE",
        "State": "NSW",
        "Postcode": "2546"
    },
    {
        "Name": "NORTH BLACKWOOD",
        "State": "VIC",
        "Postcode": "3458"
    },
    {
        "Name": "FALCON",
        "State": "WA",
        "Postcode": "6210"
    },
    {
        "Name": "BOUNDAIN",
        "State": "WA",
        "Postcode": "6312"
    },
    {
        "Name": "WOOLPUNDA",
        "State": "SA",
        "Postcode": "5330"
    },
    {
        "Name": "DIDDILLIBAH",
        "State": "QLD",
        "Postcode": "4559"
    },
    {
        "Name": "CROPPA CREEK",
        "State": "NSW",
        "Postcode": "2411"
    },
    {
        "Name": "COONOOER BRIDGE",
        "State": "VIC",
        "Postcode": "3477"
    },
    {
        "Name": "ALBERTON",
        "State": "TAS",
        "Postcode": "7263"
    },
    {
        "Name": "PARRAMATTA PARK",
        "State": "QLD",
        "Postcode": "4870"
    },
    {
        "Name": "AUSTRALIND",
        "State": "WA",
        "Postcode": "6233"
    },
    {
        "Name": "MOUNT CROSBY",
        "State": "QLD",
        "Postcode": "4306"
    },
    {
        "Name": "SPRINGFIELD",
        "State": "SA",
        "Postcode": "5062"
    },
    {
        "Name": "MINNENOOKA",
        "State": "WA",
        "Postcode": "6532"
    },
    {
        "Name": "BARRYS REEF",
        "State": "VIC",
        "Postcode": "3458"
    },
    {
        "Name": "BLAMPIED",
        "State": "VIC",
        "Postcode": "3364"
    },
    {
        "Name": "MULLINGAR",
        "State": "WA",
        "Postcode": "6430"
    },
    {
        "Name": "GLEBE",
        "State": "QLD",
        "Postcode": "4420"
    },
    {
        "Name": "ARNOLD WEST",
        "State": "VIC",
        "Postcode": "3551"
    },
    {
        "Name": "BALGOWNIE",
        "State": "NSW",
        "Postcode": "2519"
    },
    {
        "Name": "ALLENDALE EAST",
        "State": "SA",
        "Postcode": "5291"
    },
    {
        "Name": "CROOKWELL",
        "State": "NSW",
        "Postcode": "2583"
    },
    {
        "Name": "TWELVE MILE",
        "State": "NSW",
        "Postcode": "2850"
    },
    {
        "Name": "CHESNEY VALE",
        "State": "VIC",
        "Postcode": "3725"
    },
    {
        "Name": "REYNELLA",
        "State": "SA",
        "Postcode": "5161"
    },
    {
        "Name": "SOUTH BUNBURY",
        "State": "WA",
        "Postcode": "6230"
    },
    {
        "Name": "MOURQUONG",
        "State": "NSW",
        "Postcode": "2739"
    },
    {
        "Name": "TWENTY FORESTS",
        "State": "NSW",
        "Postcode": "2795"
    },
    {
        "Name": "CUMBANDRY",
        "State": "NSW",
        "Postcode": "2852"
    },
    {
        "Name": "MERTY MERTY",
        "State": "SA",
        "Postcode": "5731"
    },
    {
        "Name": "PINE VALLEY STATION",
        "State": "SA",
        "Postcode": "5417"
    },
    {
        "Name": "TARCOOLA BEACH",
        "State": "WA",
        "Postcode": "6530"
    },
    {
        "Name": "WALLALA",
        "State": "SA",
        "Postcode": "5661"
    },
    {
        "Name": "GLEN ISLA",
        "State": "QLD",
        "Postcode": "4800"
    },
    {
        "Name": "CARGERIE",
        "State": "VIC",
        "Postcode": "3334"
    },
    {
        "Name": "MURCHISON EAST",
        "State": "VIC",
        "Postcode": "3610"
    },
    {
        "Name": "NEUTRAL BAY",
        "State": "NSW",
        "Postcode": "2089"
    },
    {
        "Name": "CONONDALE",
        "State": "QLD",
        "Postcode": "4552"
    },
    {
        "Name": "PETWOOD",
        "State": "SA",
        "Postcode": "5254"
    },
    {
        "Name": "WESTCOURT",
        "State": "QLD",
        "Postcode": "4870"
    },
    {
        "Name": "MALMSBURY",
        "State": "VIC",
        "Postcode": "3446"
    },
    {
        "Name": "PARHAM",
        "State": "SA",
        "Postcode": "5501"
    },
    {
        "Name": "LACEBY",
        "State": "VIC",
        "Postcode": "3678"
    },
    {
        "Name": "URANGELINE EAST",
        "State": "NSW",
        "Postcode": "2656"
    },
    {
        "Name": "BUNGWAHL",
        "State": "NSW",
        "Postcode": "2423"
    },
    {
        "Name": "TRAYNING",
        "State": "WA",
        "Postcode": "6488"
    },
    {
        "Name": "PINK LILY",
        "State": "QLD",
        "Postcode": "4702"
    },
    {
        "Name": "STORM KING",
        "State": "QLD",
        "Postcode": "4380"
    },
    {
        "Name": "TWO ROCKS",
        "State": "WA",
        "Postcode": "6037"
    },
    {
        "Name": "PASSCHENDAELE",
        "State": "QLD",
        "Postcode": "4380"
    },
    {
        "Name": "MELROSE",
        "State": "TAS",
        "Postcode": "7310"
    },
    {
        "Name": "WARNERTOWN",
        "State": "SA",
        "Postcode": "5540"
    },
    {
        "Name": "VIEWBANK",
        "State": "VIC",
        "Postcode": "3084"
    },
    {
        "Name": "SIPPY DOWNS",
        "State": "QLD",
        "Postcode": "4556"
    },
    {
        "Name": "KARUAH",
        "State": "NSW",
        "Postcode": "2324"
    },
    {
        "Name": "ADVENTURE BAY",
        "State": "TAS",
        "Postcode": "7150"
    },
    {
        "Name": "BOOKOOKOORARA",
        "State": "NSW",
        "Postcode": "2372"
    },
    {
        "Name": "CONSUELO",
        "State": "QLD",
        "Postcode": "4702"
    },
    {
        "Name": "TRAVELLERS REST",
        "State": "TAS",
        "Postcode": "7250"
    },
    {
        "Name": "CLIFDEN",
        "State": "NSW",
        "Postcode": "2460"
    },
    {
        "Name": "BYRON BAY",
        "State": "NSW",
        "Postcode": "2481"
    },
    {
        "Name": "TUPPAL",
        "State": "NSW",
        "Postcode": "2714"
    },
    {
        "Name": "SOUTH DUDLEY",
        "State": "VIC",
        "Postcode": "3995"
    },
    {
        "Name": "ELSTERNWICK",
        "State": "VIC",
        "Postcode": "3185"
    },
    {
        "Name": "COOMBABAH",
        "State": "QLD",
        "Postcode": "4216"
    },
    {
        "Name": "BIMBI",
        "State": "NSW",
        "Postcode": "2810"
    },
    {
        "Name": "CARMILA",
        "State": "QLD",
        "Postcode": "4739"
    },
    {
        "Name": "MILLMERRAN",
        "State": "QLD",
        "Postcode": "4357"
    },
    {
        "Name": "DOON DOON",
        "State": "NSW",
        "Postcode": "2484"
    },
    {
        "Name": "MAGENTA",
        "State": "WA",
        "Postcode": "6355"
    },
    {
        "Name": "ABBEYARD",
        "State": "VIC",
        "Postcode": "3737"
    },
    {
        "Name": "POINT LOOKOUT",
        "State": "QLD",
        "Postcode": "4183"
    },
    {
        "Name": "HEIFER STATION",
        "State": "NSW",
        "Postcode": "2460"
    },
    {
        "Name": "CULBURRA BEACH",
        "State": "NSW",
        "Postcode": "2540"
    },
    {
        "Name": "NATURAL BRIDGE",
        "State": "QLD",
        "Postcode": "4211"
    },
    {
        "Name": "MUMBERKINE",
        "State": "WA",
        "Postcode": "6401"
    },
    {
        "Name": "MOUNT BULLER",
        "State": "VIC",
        "Postcode": "3723"
    },
    {
        "Name": "WEDGE ISLAND",
        "State": "WA",
        "Postcode": "6044"
    },
    {
        "Name": "MULI MULI",
        "State": "NSW",
        "Postcode": "2476"
    },
    {
        "Name": "MANLY WEST",
        "State": "QLD",
        "Postcode": "4179"
    },
    {
        "Name": "ORCHID VALLEY",
        "State": "WA",
        "Postcode": "6394"
    },
    {
        "Name": "MULGRAVE",
        "State": "NSW",
        "Postcode": "2756"
    },
    {
        "Name": "MOUNT ROOPER",
        "State": "QLD",
        "Postcode": "4802"
    },
    {
        "Name": "BUNYUNG",
        "State": "SA",
        "Postcode": "5417"
    },
    {
        "Name": "SIX MILE SWAMP",
        "State": "NSW",
        "Postcode": "2469"
    },
    {
        "Name": "MIALLO",
        "State": "QLD",
        "Postcode": "4873"
    },
    {
        "Name": "YANDARAN",
        "State": "QLD",
        "Postcode": "4673"
    },
    {
        "Name": "JOADJA",
        "State": "NSW",
        "Postcode": "2575"
    },
    {
        "Name": "PERSEVERANCE",
        "State": "QLD",
        "Postcode": "4352"
    },
    {
        "Name": "BRIM",
        "State": "VIC",
        "Postcode": "3391"
    },
    {
        "Name": "REDLANDS",
        "State": "NSW",
        "Postcode": "2646"
    },
    {
        "Name": "MERRITON",
        "State": "SA",
        "Postcode": "5523"
    },
    {
        "Name": "HOLT ROCK",
        "State": "WA",
        "Postcode": "6355"
    },
    {
        "Name": "PARMA",
        "State": "NSW",
        "Postcode": "2540"
    },
    {
        "Name": "TOOGONG",
        "State": "NSW",
        "Postcode": "2864"
    },
    {
        "Name": "ABERFOYLE PARK",
        "State": "SA",
        "Postcode": "5159"
    },
    {
        "Name": "LAKE LONSDALE",
        "State": "VIC",
        "Postcode": "3381"
    },
    {
        "Name": "JERRAMUNGUP",
        "State": "WA",
        "Postcode": "6337"
    },
    {
        "Name": "KINGSFORD",
        "State": "WA",
        "Postcode": "6701"
    },
    {
        "Name": "MALVERN",
        "State": "VIC",
        "Postcode": "3144"
    },
    {
        "Name": "LAKE HAVEN",
        "State": "NSW",
        "Postcode": "2263"
    },
    {
        "Name": "SURREY DOWNS",
        "State": "SA",
        "Postcode": "5126"
    },
    {
        "Name": "MORNINGTON",
        "State": "TAS",
        "Postcode": "7018"
    },
    {
        "Name": "VISTA",
        "State": "SA",
        "Postcode": "5091"
    },
    {
        "Name": "OLD PLAINS",
        "State": "WA",
        "Postcode": "6569"
    },
    {
        "Name": "MOUNT NEBO",
        "State": "QLD",
        "Postcode": "4520"
    },
    {
        "Name": "FAIRY HILL",
        "State": "NSW",
        "Postcode": "2470"
    },
    {
        "Name": "ELVINA BAY",
        "State": "NSW",
        "Postcode": "2105"
    },
    {
        "Name": "LYTTON",
        "State": "QLD",
        "Postcode": "4178"
    },
    {
        "Name": "MCINTOSH CREEK",
        "State": "QLD",
        "Postcode": "4570"
    },
    {
        "Name": "WURA",
        "State": "QLD",
        "Postcode": "4714"
    },
    {
        "Name": "CORINTHIA",
        "State": "WA",
        "Postcode": "6426"
    },
    {
        "Name": "BARGUNYAH",
        "State": "QLD",
        "Postcode": "4488"
    },
    {
        "Name": "CAULFIELD NORTH",
        "State": "VIC",
        "Postcode": "3161"
    },
    {
        "Name": "EDITH",
        "State": "NT",
        "Postcode": "0852"
    },
    {
        "Name": "GHEERULLA",
        "State": "QLD",
        "Postcode": "4574"
    },
    {
        "Name": "THREE BRIDGES",
        "State": "VIC",
        "Postcode": "3797"
    },
    {
        "Name": "NAILSWORTH",
        "State": "SA",
        "Postcode": "5083"
    },
    {
        "Name": "TAUNTON",
        "State": "QLD",
        "Postcode": "4674"
    },
    {
        "Name": "NIMBIN",
        "State": "NSW",
        "Postcode": "2480"
    },
    {
        "Name": "MARAGLE",
        "State": "NSW",
        "Postcode": "2653"
    },
    {
        "Name": "BUCKLEY SWAMP",
        "State": "VIC",
        "Postcode": "3301"
    },
    {
        "Name": "CORNY POINT",
        "State": "SA",
        "Postcode": "5575"
    },
    {
        "Name": "TOTTENHAM",
        "State": "NSW",
        "Postcode": "2873"
    },
    {
        "Name": "NATURALISTE",
        "State": "WA",
        "Postcode": "6281"
    },
    {
        "Name": "MANSFIELD PARK",
        "State": "SA",
        "Postcode": "5012"
    },
    {
        "Name": "AVONDALE",
        "State": "NSW",
        "Postcode": "2530"
    },
    {
        "Name": "YARROWEYAH",
        "State": "VIC",
        "Postcode": "3644"
    },
    {
        "Name": "BUTE",
        "State": "SA",
        "Postcode": "5560"
    },
    {
        "Name": "RUDDS GULLY",
        "State": "WA",
        "Postcode": "6532"
    },
    {
        "Name": "GEMALLA",
        "State": "NSW",
        "Postcode": "2795"
    },
    {
        "Name": "GLENROY",
        "State": "NSW",
        "Postcode": "2653"
    },
    {
        "Name": "FLYNN",
        "State": "ACT",
        "Postcode": "2615"
    },
    {
        "Name": "GREGORY RIVER",
        "State": "QLD",
        "Postcode": "4660"
    },
    {
        "Name": "GOLDEN GROVE",
        "State": "SA",
        "Postcode": "5125"
    },
    {
        "Name": "BINDI BINDI",
        "State": "WA",
        "Postcode": "6574"
    },
    {
        "Name": "ALTONA",
        "State": "VIC",
        "Postcode": "3018"
    },
    {
        "Name": "APPLETREE FLAT",
        "State": "NSW",
        "Postcode": "2330"
    },
    {
        "Name": "KILLARA",
        "State": "VIC",
        "Postcode": "3312"
    },
    {
        "Name": "RANKEN",
        "State": "NT",
        "Postcode": "4825"
    },
    {
        "Name": "HINES HILL",
        "State": "WA",
        "Postcode": "6413"
    },
    {
        "Name": "MCDOUALL PEAK",
        "State": "SA",
        "Postcode": "5723"
    },
    {
        "Name": "COTHERSTONE",
        "State": "QLD",
        "Postcode": "4723"
    },
    {
        "Name": "GOODWOOD ISLAND",
        "State": "NSW",
        "Postcode": "2469"
    },
    {
        "Name": "WEST ISLAND",
        "State": "OT",
        "Postcode": "6799"
    },
    {
        "Name": "NOME",
        "State": "QLD",
        "Postcode": "4816"
    },
    {
        "Name": "WALLOON",
        "State": "QLD",
        "Postcode": "4306"
    },
    {
        "Name": "MOLONG",
        "State": "NSW",
        "Postcode": "2866"
    },
    {
        "Name": "STAWELL",
        "State": "VIC",
        "Postcode": "3380"
    },
    {
        "Name": "YARRAGON",
        "State": "VIC",
        "Postcode": "3823"
    },
    {
        "Name": "BLACK FOREST",
        "State": "SA",
        "Postcode": "5035"
    },
    {
        "Name": "FOREST REEFS",
        "State": "NSW",
        "Postcode": "2798"
    },
    {
        "Name": "WEYBA DOWNS",
        "State": "QLD",
        "Postcode": "4562"
    },
    {
        "Name": "GLENDON BROOK",
        "State": "NSW",
        "Postcode": "2330"
    },
    {
        "Name": "BLAXLANDS RIDGE",
        "State": "NSW",
        "Postcode": "2758"
    },
    {
        "Name": "BLAND",
        "State": "NSW",
        "Postcode": "2721"
    },
    {
        "Name": "BILAMBIL HEIGHTS",
        "State": "NSW",
        "Postcode": "2486"
    },
    {
        "Name": "GATTON",
        "State": "QLD",
        "Postcode": "4343"
    },
    {
        "Name": "BURNT YARDS",
        "State": "NSW",
        "Postcode": "2792"
    },
    {
        "Name": "KIA ORA",
        "State": "NSW",
        "Postcode": "2422"
    },
    {
        "Name": "JINGILI",
        "State": "NT",
        "Postcode": "0810"
    },
    {
        "Name": "HADSPEN",
        "State": "TAS",
        "Postcode": "7290"
    },
    {
        "Name": "BOKARINA",
        "State": "QLD",
        "Postcode": "4575"
    },
    {
        "Name": "DENISTONE WEST",
        "State": "NSW",
        "Postcode": "2114"
    },
    {
        "Name": "HEIDELBERG WEST",
        "State": "VIC",
        "Postcode": "3081"
    },
    {
        "Name": "BADGIN",
        "State": "WA",
        "Postcode": "6302"
    },
    {
        "Name": "NILLUP",
        "State": "WA",
        "Postcode": "6288"
    },
    {
        "Name": "MULYUNGARIE",
        "State": "SA",
        "Postcode": "5440"
    },
    {
        "Name": "NO 6 BRANCH",
        "State": "QLD",
        "Postcode": "4859"
    },
    {
        "Name": "DENICULL CREEK",
        "State": "VIC",
        "Postcode": "3377"
    },
    {
        "Name": "WYBUNG",
        "State": "NSW",
        "Postcode": "2259"
    },
    {
        "Name": "ILLEROO",
        "State": "SA",
        "Postcode": "5715"
    },
    {
        "Name": "WURAMING",
        "State": "WA",
        "Postcode": "6390"
    },
    {
        "Name": "STRATHALBYN",
        "State": "SA",
        "Postcode": "5255"
    },
    {
        "Name": "OSBORNE PARK",
        "State": "WA",
        "Postcode": "6017"
    },
    {
        "Name": "TEDDINGTON",
        "State": "QLD",
        "Postcode": "4650"
    },
    {
        "Name": "DORSET VALE",
        "State": "SA",
        "Postcode": "5157"
    },
    {
        "Name": "EAST YUNA",
        "State": "WA",
        "Postcode": "6532"
    },
    {
        "Name": "UNLEY",
        "State": "SA",
        "Postcode": "5061"
    },
    {
        "Name": "WINKLEIGH",
        "State": "TAS",
        "Postcode": "7275"
    },
    {
        "Name": "CATTAI",
        "State": "NSW",
        "Postcode": "2756"
    },
    {
        "Name": "PAMBULA BEACH",
        "State": "NSW",
        "Postcode": "2549"
    },
    {
        "Name": "MONS",
        "State": "QLD",
        "Postcode": "4556"
    },
    {
        "Name": "JACANA",
        "State": "VIC",
        "Postcode": "3047"
    },
    {
        "Name": "CARLSRUHE",
        "State": "VIC",
        "Postcode": "3442"
    },
    {
        "Name": "SANDRINGHAM",
        "State": "NSW",
        "Postcode": "2219"
    },
    {
        "Name": "MERRICKS",
        "State": "VIC",
        "Postcode": "3916"
    },
    {
        "Name": "UTAKARRA",
        "State": "WA",
        "Postcode": "6530"
    },
    {
        "Name": "MARRADONG",
        "State": "WA",
        "Postcode": "6390"
    },
    {
        "Name": "NAVAL BASE",
        "State": "WA",
        "Postcode": "6165"
    },
    {
        "Name": "SMITHS CREEK",
        "State": "NSW",
        "Postcode": "2460"
    },
    {
        "Name": "BLACKALLS PARK",
        "State": "NSW",
        "Postcode": "2283"
    },
    {
        "Name": "CORNWALL",
        "State": "QLD",
        "Postcode": "4455"
    },
    {
        "Name": "BRAEMAR BAY",
        "State": "NSW",
        "Postcode": "2628"
    },
    {
        "Name": "MAGOMETON",
        "State": "NSW",
        "Postcode": "2829"
    },
    {
        "Name": "CARRUM",
        "State": "VIC",
        "Postcode": "3197"
    },
    {
        "Name": "COES CREEK",
        "State": "QLD",
        "Postcode": "4560"
    },
    {
        "Name": "SARATOGA",
        "State": "NSW",
        "Postcode": "2251"
    },
    {
        "Name": "CHANDADA",
        "State": "SA",
        "Postcode": "5680"
    },
    {
        "Name": "LEMINGTON",
        "State": "NSW",
        "Postcode": "2330"
    },
    {
        "Name": "LINDSAY POINT",
        "State": "VIC",
        "Postcode": "3496"
    },
    {
        "Name": "SUTHERLANDS CREEK",
        "State": "VIC",
        "Postcode": "3331"
    },
    {
        "Name": "TYALGUM CREEK",
        "State": "NSW",
        "Postcode": "2484"
    },
    {
        "Name": "ESSENDON",
        "State": "VIC",
        "Postcode": "3040"
    },
    {
        "Name": "AMBLESIDE",
        "State": "TAS",
        "Postcode": "7310"
    },
    {
        "Name": "THE ROCKS",
        "State": "NSW",
        "Postcode": "2000"
    },
    {
        "Name": "CHARLOTTE PASS",
        "State": "NSW",
        "Postcode": "2624"
    },
    {
        "Name": "KINGSWOOD",
        "State": "NSW",
        "Postcode": "2747"
    },
    {
        "Name": "SPRING CREEK",
        "State": "QLD",
        "Postcode": "4361"
    },
    {
        "Name": "YOUARANG",
        "State": "VIC",
        "Postcode": "3728"
    },
    {
        "Name": "LITTLE BAY",
        "State": "NSW",
        "Postcode": "2036"
    },
    {
        "Name": "GOOMBARGANA",
        "State": "NSW",
        "Postcode": "2646"
    },
    {
        "Name": "VIVEASH",
        "State": "WA",
        "Postcode": "6056"
    },
    {
        "Name": "GARRADUNGA",
        "State": "QLD",
        "Postcode": "4860"
    },
    {
        "Name": "CAURNAMONT",
        "State": "SA",
        "Postcode": "5238"
    },
    {
        "Name": "BORNHOLM",
        "State": "WA",
        "Postcode": "6330"
    },
    {
        "Name": "HARTYS PLAINS",
        "State": "NSW",
        "Postcode": "2446"
    },
    {
        "Name": "PASTORIA",
        "State": "VIC",
        "Postcode": "3444"
    },
    {
        "Name": "MAISON DIEU",
        "State": "NSW",
        "Postcode": "2330"
    }
]